"name","x","y","address"
"Братская могила партизан и местных жителей, погибших в годы колчаковского террора в 1919-1920 гг.","96.066985858193","56.675669600957","Абанский район, п. Абан, Красная площадь, ул. Советская напротив дома по ул. Пионерская, 1"
"Дом, в котором в 1916–1917 гг. жил революционер, советский военачальник Примаков Виталий Маркович","96.07702535054","56.67626422705","Абанский район, п. Абан, ул.                Примакова, 28"
"Памятник Герою Советского Союза Богутскому Виктору Степановичу","96.069105962189","56.676449040765","Абанский район, п. Абан, ул. Советская, 56 А"
"Братская могила партизан и жителей села, погибших от рук колчаковцев в 1919 г.","96.219083995015","56.857930767936","Абанский район, с. Апано-Ключи, ул. Мира, 5А
"
"Здание, где в лазарете в 1919 г. находились на излечении партизаны в период колчаковщины","96.802821107982","56.758961718738","Абанский район, с. Долгий Мост, ул. Заречная, 28, стр. 1
"
"Могила Капустина Михаила Денисовича, Героя Советского Союза (1907-1968 гг.)","96.778490542855","56.750325420048","Абанский район, с. Долгий Мост, сельское кладбище
"
"Здание, где в феврале-июне 1919 года находился полевой штаб Долгомостовского партизанского отряда","96.80767128577","56.749254108854","Абанский район, с. Долгий Мост, ул. А. Помозова, 11а
"
"Могила партизан и жителей села, погибших от рук колчаковцев в 1919 г.","96.146717823528","56.786091912318","Абанский район, д. Зимник, 60 м к северо-востоку от центральных ворот кладбища
"
"Могила Смирнова Андрея Семёновича, партизанского разведчика, расстрелянного колчаковцами в декабре 1919 г.","95.719499206693","56.607529687933","Абанский район, д. Ношино, ул. Советская, 38А
"
"Могила Огнева Андрея, юного партизана, связного, расстрелянного колчаковцами (1905-1919 гг.)","95.89065833591","56.836659581427","Абанский район, с. Самойловка, кладбище
"
"Могила Мозолевского Александра Евтихиевича (1803-1857), декабриста","95.996672501947","56.518639239676","Абанский район, с. Устьянск, 50 м к юго-востоку от центральных ворот кладбища
"
"Братская могила 44 деятелей Ачинского Совета рабочих, солдатских и крестьянских депутатов, расстрелянных колчаковским карательным отрядом в мае и июне 1919 г.","90.501408004646","56.278645379371","г. Ачинск, парк Троицкий
"
"Могила Пузановой (Дедюры) Евдокии Лаврентьевны (1881-1924 гг.), профессиональной революционерки, партийного и общественного деятеля","90.50131728443","56.278557706044","г. Ачинск, парк Троицкий
"
"Могила Строчко И.Н. (1908-1931 гг.), комсомольского и партийного работника","90.501527969161","56.278728278047","г. Ачинск, парк Троицкий
"
"Здание, где в 1917-1918 гг. находился штаб красногвардейских отрядов","90.485876883258","56.266661657786","г. Ачинск, мкр-н Авиатор, 12
"
"Дом, в котором в 1917-1918 годах размещался Совет рабочих, солдатских и крестьянских депутатов/Дом, в котором в 1917 году размещался гарнизонный Совет солдатских депутатов/Здание, где в марте-ноябре 1","90.482243617659","56.266346337432","г. Ачинск
мкр-н Авиатор, 34
"
"Дом, в котором в мае-августе 1915 г. жила соратник В.И. Ленина, деятель российского и международного коммунистического движения, Герой Социалистического Труда Стасова Елена Дмитриевна","90.505241393423","56.278277426169","г. Ачинск, ул. Красного Октября, 35
"
"Магазины торговых рядов, кон. ХIХ в.","90.504682750509","56.279006542566","г. Ачинск, ул. Дзержинского, 13а, ул. Дзержинского, 13б,          ул. Дзержинского, 15"
"Дом жилой, кон. ХIХ в.","90.49939822756","56.273829848869","г. Ачинск, ул. Карла Маркса, 1
"
"Церковно-приходская школа, кон. ХIХ в.","90.498880496269","56.274227131102","г. Ачинск, ул. Карла Маркса, 2
"
"Дом жилой, кон. ХIХ в.","90.49840053859","56.273750664756","г. Ачинск, ул. Карла Маркса, 4
"
"Дом, в котором в мае 1917 года был открыт народный клуб <Интернационал>","90.498739328603","56.273435608633","г. Ачинск, ул. Карла Маркса, 3
"
"Дом жилой, кон. ХIХ в.","90.495704669202","56.272065137936","г. Ачинск, ул. Карла Маркса, 20
"
"Ансамбль: часовня, 1891 г.;
ворота ограды, 1891 г.; Казанская церковь, 1836-1890-е гг.","90.495561130468","56.271016037988","г. Ачинск, ул. Карла Маркса, 21
"
"Ансамбль: часовня, 1891 г.;
ворота ограды, 1891 г.; Казанская церковь, 1836-1890-е гг.","90.49523040642","56.270912771004","г. Ачинск
ул. Карла Маркса, 21
"
"Синематограф, 1913 г.","90.499659844652","56.278980257363","г. Ачинск, ул. Комсомольская, 1
"
"Дом жилой с магазином, кон. ХIХ в.","90.502643794063","56.277441723311","г. Ачинск, ул. Комсомольская, 10
"
"Учебное заведение, руб. ХIХ-ХХ вв.","90.495819438846","56.268097286592","г. Ачинск, ул. Коммунистическая, 49
"
"<Церковь Иверской Богоматери>, 1871-1872 гг.","92.18830259153","58.453706107623","г. Енисейск, ул. Ленина, 100
"
"<Дом нотариуса А.М. Трескова на исторической усадьбе XIX в. Неоклассицизм>, 1912-1913 гг., архитектор В.А. Соколовский","90.50725420163","56.280542486954","г. Ачинск, ул. Красного Октября, 14
"
"Дом жилой, кон. ХIХ в.","90.505416622811","56.278992502702","г. Ачинск, ул. Красного Октября, 28
"
"<Магазин. Фрагмент гостиного двора>, руб. ХIХ-ХХ вв.
","90.504690298393","56.278446714508","г. Ачинск, ул. Красного Октября, 32
"
"<Дом, где в 1917 году жил в ссылке И.В. Сталин> (объект утрачен)","90.508897245085","56.280044433288","г. Ачинск, ул. Крупской, 20
"
"Дом, в котором в 1916-1917 годах находилась подпольная типография Ачинской организации РСДРП","90.505678242465","56.282823076971","г. Ачинск, ул. Ленина, 4
"
"Дом жилой, кон. ХIХ в.","90.502794281801","56.280457925465","г. Ачинск, ул. Ленина, 14
"
"Дом, в котором в январе 1920 г. находился штаб партизанской армии Щетинкина-Кравченко","90.501897549001","56.279715538631","г. Ачинск, ул. Ленина, 20
"
"<Магазин>, сер. ХIХ в.","90.50127546071","56.279198659832","г. Ачинск, ул. Ленина, 20г
"
"<Дом жилой с магазином>, 1910 г.","90.500665400233","56.278039314554","г. Ачинск, ул. Ленина, 21
"
"Усадьба Бородавкина, кон. ХIХ – нач. ХХ вв.:здание магазина","90.501122290792","56.279018281889","ул. Ленина, 22а"
"Усадьба Бородавкина, кон. ХIХ - нач. ХХ вв.: жилой дом с магазином (кирпич, дерево), конторско-складской корпус; амбар
","90.500931568599","56.27883738221","г. Ачинск, ул. Ленина, 22
"
"Усадьба Максимова, кон. ХIХ - нач. ХХ вв.: дом жилой;
","90.500544533995","56.278561310365","г. Ачинск, ул. Ленина, 24
"
"Усадьба Максимова, кон. ХIХ - нач. ХХ вв.: лавка; завозня
","90.500683598795","56.278794818139","г. Ачинск, ул. Ленина, 24а
"
"Усадьба Максимова, кон. ХIХ - нач. ХХ вв.: конторско-складской корпус","90.500111349213","56.278679792928","г. Ачинск, ул. Ленина, 24б
"
"Дом жилой с магазином, руб. ХIХ-ХХ вв.","90.50053326602","56.277921296088","г. Ачинск, ул. Ленина, 23
"
"<Дом жилой с магазином>, кон. ХIХ в.","90.498928671728","56.277239696343","г. Ачинск, ул. Ленина, 32
"
"<Бревенчатый дом на притрактовой усадьбе XVIII в.>, XVIII в.","90.495851905283","56.274001328488","г. Ачинск, ул. Ленина, 48
"
"<Дом жилой (дерево)>, руб. ХIХ-ХХ вв.","90.496651387003","56.274162364534","г. Ачинск, ул. Ленина, 53
"
"<Бревенчатый дом с воротами на усадьбе XVIII в.>, XVIII в.","90.492901097806","56.271645306498","г. Ачинск, ул. Ленина, 79
"
"<Дом жилой с хозяйственными постройками>, руб. XIX-XX вв.","90.506844324016","56.281267666372","г. Ачинск, ул. Партизанская, 11
"
"<Флигель>, кон. XIX в.","90.506926128853","56.281344425626","г. Ачинск, ул. Партизанская, 11а
"
"Дом, где в 1939-1941 гг. жил Герой Советского Союза Лебеденко Николай Фёдорович","90.504295232674","56.279832089576","г. Ачинск, ул. Партизанская, 18
"
"<Дом жилой>, кон. ХIХ в.","90.504072103923","56.279704192154","г. Ачинск, ул. Партизанская, 20
"
"<Дом жилой>, кон. ХIХ в.","90.503742827545","56.279429295745","г. Ачинск, ул. Партизанская, 22
"
"<Дом жилой с магазином>, кон. ХIХ","90.501665869064","56.277708106113","г. Ачинск, ул. Партизанская, 26
"
"Дом жилой с магазином, кон. ХIХ в","90.50213845537","56.277411837465","г. Ачинск, ул. Партизанская, 35
"
"Дом, где в 1920-1923 гг. жил видный военачальник Щетинкин Пётр Ефимович","90.501952823549","56.277300788163","г. Ачинск, ул. Партизанская, 37
"
"<Торговая лавка>, кон. ХIХ в.","90.500914990861","56.276061955995","г. Ачинск, ул. Патушинского, 10
"
"Женская прогимназия, 1916 г.","90.503702218727","56.281531588154","г. Ачинск, ул. Ленина, 10
"
"Дом жилой, кон. ХIХ в.","90.506607834735","56.280307917758","г. Ачинск, ул. Просвещения, 15 (г. Ачинск,
ул. Воеводы Тухачевского, 15)
"
"<Общественное собрание>, 1915 г.","90.499019474932","56.278987197851","г. Ачинск, ул. Пузановой, 38, кор. 1
"
"<Дом жилой с воротами>, кон. ХIХ в.","90.500831232744","56.273835764137","г. Ачинск, ул. Свердлова, 2
"
"Бюст П.Е. Щетинкина
Автор скульптор Г.Д. Лавров 1963 г.","90.501727129922","56.278875578474","г. Ачинск, Центральный парк культуры и отдыха
"
"Синагога, 1907 г.","90.501580631707","56.275208266433","г. Ачинск, ул. Суркова, 25
"
"Братская могила советских воинов, умерших в госпиталях г. Ачинска в 1941-1945 гг.","90.518171320975","56.270006758328","г. Ачинск, ул. Дзержинского, соор. 30М
"
"Могила Лапенкова Ивана Адамовича (1912-1972 гг.), Героя Советского Союза","90.518357402971","56.269962205399","г. Ачинск, ул. Дзержинского, соор. 30И
"
"Братская могила партизан, расстрелянных колчаковцами в апреле 1919 г.","90.443608812123","56.351179654713","Ачинский район, д. Курбатово, ул. Центральная, 58А
"
"Могила красного партизана Ворохобина П.И., убитого белобандитами в 1921 году","90.410893742995","56.409409579304","Ачинский район, д. Нагорново, ул. Уланова, 5А
"
"Братская могила 30 партизан, расстрелянных колчаковцами в мае 1919 г.","90.410922006099","56.409420899862","Ачинский район, д. Нагорново, ул. Уланова, 5А
"
"Дом, в котором в декабре 1918 г. проводилось собрание подпольщиков под руководством Щетинкина Петра Ефимовича","90.413703194052","56.409650638193","Ачинский район, д. Нагорново, ул. Советская, 41
"
"Братская могила шестнадцати партизан, расстрелянных колчаковцами в апреле 1919 года","90.750663830902","56.452314752076","Ачинский район, с. Лапшиха, ул. Партизанская, 44Б
"
"Памятник Герою Советского Союза Ивченко Михаилу Лаврентьевичу","90.750721893195","56.452315804746","Ачинский район, с. Лапшиха, ул. Партизанская, 44А
"
"Братская могила 22 партизан, расстрелянных колчаковцами весной 1919 года
","90.963855736252","56.405293076465","Ачинский район, с. Ольховка, ул. Партизанская, 49А
"
"<Церковь (дерево)>, 1909 г. (Примечание: объект сгорел 23.11.2002)","90.965501776604","56.405631227869","Ачинский район, с. Ольховка
"
"Братская могила партизан, расстрелянных колчаковцами в апреле 1919 г.","90.781259835282","56.290807759569","Ачинский район, с. Покровка, ориентир жилой дом № 64 по ул. Центральная, находится примерно в 131 м от ориентира по направлению на юго-запад
"
"Братская могила 10 партизан из отряда Уланова, расстрелянных колчаковцами в марте 1919 года","90.735122423675","56.398317325706","Ачинский район, д. Тимонино, ул. Имени Ивченко М.Л., 25А
"
"Могила Белова Александра Кузьмича (1911-1974), Героя Советского Союза","91.614893746143","55.394973693745","Балахтинский район, пгт. Балахта, на 100 м севернее жилой зоны поселка, сооружение 1
"
"Братская могила <18 борцов> - партизан и коммунистов, зарубленных шашками колчаковским карательным отрядом в апреле 1919 года","91.613159825229","55.390657101134","Балахтинский район, пгт. Балахта, ул. Советская, 47а
"
"Братская могила семи активистов села, расстрелянных после жестоких издевательств и пыток в ночь с 29 на 30 января 1919 года колчаковским карательным отрядом","91.471634599527","55.519467292935","Балахтинский район, с. Еловка, ул. Мира, 50
"
"Братская могила одиннадцати коммунистов и активистов села, убитых 26 ноября 1922 года и в июне-июле 1923 года остатками белогвардейских банд/Братская могила коммунистов и советских активистов, расстре","91.15903276685","55.579763742198","Балахтинский район, с. Курбатово, ул. Школьная, в 80 м юго-восточнее земельного участка с кадастровым номером 24:03:4004002:9
"
"Братская могила четырех коммунистов, погибших при ликвидации остатков белогвардейских банд 20 февраля 1920 года","91.241886064167","55.358574259898","Балахтинский район, с. Тюльково, ул. Ленина, в 36 м юго-западнее здания сельского клуба
"
"Могила Пелипаса Валентина Дмитриевича (1920-1957), Героя Советского Союза","91.196981386246","55.244017224083","Балахтинский район, примерно в 460 м от ориентира по направлению на юго-восток, ориентир жилая зона п. Чистое Поле
"
"Братская могила партизан, расстрелянных колчаковцами в марте 1919 г.","90.447474211765","56.895291452278","Бирилюсский район, с. Зачулымка, с юго-западной строны кладбища на расстоянии 39 м от центральных ворот
"
"Братская могила 18 партизан, замученных колчаковскими карателями в марте 1919 г.","91.037242021555","56.873825370645","Бирилюсский район, д. Петровка, ул. Щетинкина, 19А
"
"Могила Черкасова Николая Николаевича, партизана, погибшего в бою с колчаковцами 16 марта 1919 г.","90.651297189377","57.220992697272","Бирилюсский район, д. Шпагино-2, ул. Центральная, 3-а-1
"
"Обелиск в память погибших за завоевание и защиту Советской власти в г. Боготоле","89.529981997877","56.209532041774","г. Боготол, ул. 40 лет Октября, 2
"
"Дом, в подвальном помещении которого в 1905-1907 гг. находилась подпольная типография Боготольской организации РСДРП","89.530358713998","56.220807834636","г. Боготол, ул. Пролетарская, 47
"
"Здание, где в марте 1917 - июне 1918 гг. размещался первый Совет рабочих, крестьянских и солдатских депутатов и 2 февраля 1920 г. была создана первая комсомольская ячейка г. Боготола","89.530228809258","56.208932509016","г. Боготол, ул. Советская, 3
"
"Могила Толстихина Алексея Ивановича (1917-1992), полного кавалера ордена Славы","89.550241815206","56.205693200806","г. Боготол, кладбище, юго-восточный угол
"
"Могила Шикунова Николая Павловича (1923-1959 гг.), Героя Советского Союза","89.54628927659","56.206173123119","г. Боготол, в 0,3 км к северо-востоку от здания по ул. Октябрьская, 73
"
"Братская могила партизан, погибших в борьбе с колчаковцами в 1919 году","89.348959744301","56.134362763096","Боготольский район, с. Большая Косуль, ул. Ленина, 97А
"
"Трактор <ХТЗ>, установленный в 1970 году в честь создания в 1930 году первой МТС района","90.014177461544","56.242421816197","Боготольский район, с. Критово, ул. Переездная, 2Б
"
"Могила Шадрина Степана Васильевича (1881-1918 гг.), красногвардейца, замученного белогвардейцами","90.064439516684","56.228847806908","Боготольский район, д. Красная Речка, ул. Трактовая, 62А
"
"Могила 13-летнего партизана, связного Буркова Апполинария, зверски расстрелянного колчаковским отрядом 4 июля 1918 года","89.249292671936","56.115721296346","Боготольский район, п. Каштан, ул. Буркова, 5
"
"Братская могила партизан, погибших в бою с колчаковским отрядом в 1918 году","89.251699184671","56.275394142708","Боготольский район, Юрьевский сельсовет, д. Лебедевка
"
"Могила красногвардейца Бедорева Николая Ивановича, погибшего в бою с белобандитами в 1922 г.","93.139599475449","56.913782019867","Большемуртинский район, пгт. Большая Мурта, ул. Советская, 1Д
"
"Братская могила 48 партизан из отряда Доброва, погибших в боях с колчаковцами в июне 1919 года","93.136148152284","56.910965098739","Большемуртинский район, пгт. Большая Мурта, ул. Партизанская, 71В
"
"Братская могила четырнадцати партизан и их семей, расстрелянных в апреле 1919 года колчаковским карательным отрядом","93.267840022103","56.755787542154","Большемуртинский район, с. Еловка, ул. Молодежная, сооружение 1Г
"
"Братская могила восьми партизан, расстрелянных колчаковцами в апреле 1919 года","93.297605998178","56.900865085129","Большемуртинский район, д. Комарово, ул. Центральная, 30а
"
"Могила председателя Межовского сельсовета Стаценко Я.С. и красноармейца, убитых в 1929 году кулаками","92.964980291413","56.748565745645","Большемуртинский район, с. Межово, ул. Якова Стаценко, 31а
"
"Братская могила пятнадцати партизан и их семей, зверски расстрелянных колчаковцами в 1919 году","93.114974047664","56.955803947698","Большемуртинский район, д. Малый Кантат, ул. Новая, сооружение 1
"
"Братская могила партизан, казнённых колчаковцами в марте 1919 г.","90.261902337798","56.561595102348","Большеулуйский район, с. Бычки
"
"Могила двух партизан, направлявшихся для связи в партизанский отряд, захваченных и расстрелянных колчаковцами в мае 1919 года","93.126196554118","57.056002242224","Большемуртинский район, д. Большой Кантат, ул. Центральная, 5Б
"
"Могила двух партизан, расстрелянных колчаковцами в 1919 году","93.140980760935","57.163379586783","Большемуртинский район, с. Таловка, ул. Партизанская, 11А
"
"Братская могила жертв колчаковского карательного отряда, расстрелянных в марте 1919 г.","90.78835230853","56.530149971959","Большеулуйский район, д. Александровка
"
"Братская могила партизан отряда Щетинкина Петра Ефимовича, погибших в 1919 году в борьбе с белобандитами","90.664207890646","56.787779724771","Большеулуйский район, с. Берёзовка
"
"Здание, где в феврале 1919 года проходил съезд крестьянских и партизанских представителей Северо-Ачинского партизанского района","90.567993311537","56.655407119838","Большеулуйский район, с. Большой Улуй, ул. Советская, 119
"
"Дом, в котором в 1920-1930 гг. родился и жил Герой Советского Союза Давыдов Василий Иннокентьевич","90.573724864087","56.655944160611","Большеулуйский район, с. Большой Улуй, ул. Просвещения, 14
"
"Братская могила десяти партизан из отряда П.Е. Щетинкина, раненых во время боя и расстрелянных казачьим отрядом в марте 1919 года/Братская могила десяти партизан из отряда П.Е. Щетинкина, расстрелянны","90.600351635646","56.646637779164","Большеулуйский район, с. Большой Улуй, на общем кладбище
"
"Братская могила партизан и жителей села, расстрелянных колчаковцами в апреле 1919 г.","90.645613435846","56.481519946423","Большеулуйский район, д. Листвянка (уточнение: деревня исключена из данных учета административно-территориальных единиц и населенных пунктов Красноярского края в связи с переселением всех жителей (распоряжение администрации Красноярского края от 27.12.200"
"Братская могила партизан из отряда П.Е. Щетинкина, расстрелянных белогвардейцами в апреле 1919 г.","90.656283116297","56.493384740361","Большеулуйский район, с. Новая Еловка
"
"Место расстрела партизан отряда Щетинкина Петра Ефимовича в апреле 1919 года колчаковцами","90.656020015513","56.493562172308","Большеулуйский район, с. Новая Еловка
"
"Братская могила 16 партизан, расстрелянных колчаковским карательным отрядом в марте 1919 года","90.42797751235","56.427246052312","Большеулуйский район, Сучковский сельсовет, д. Красновка, в центре села
"
"Самосвал <МАЗ-225>, установленный в честь строителей Красноярской ГЭС","92.320601430367","55.953606490716","г. Дивногорск, Нижний проезд, сооружение 33а
"
"Памятник строителям города Дивногорска","92.380624778464","55.965175574471","г. Дивногорск, ул. Гидростроителей, 20, сооружение 1"
"<Знаменский скит>, 1888 г.","92.394097930319","55.962774010197","г. Дивногорск, ул. Старый Скит, 2
"
"<Усадьба писателя В.П. Астафьева в поселке Овсянка: дом, флигель, ворота с калиткой, палисадник, сад, скульптурная композиция-памятник <Астафьевы в Овсянке> (работа скульптора В.А. Зеленова)>, нач. XX","92.573137039216","55.960688542967","г. Дивногорск, п. Овсянка, ул. Щетинкина, 26
"
"Братская могила девяти жителей села Дзержинского, расстрелянных карательным отрядом за связь с партизанами в феврале 1919 года","95.22282100717","56.822605401395","Дзержинский район, Дзержинский сельсовет, с. Дзержинское
в сквере
"
"Братская могила одиннадцати партизан из села Денисово, расстрелянных колчаковцами в 1919 году","95.105300027213","56.856736579738","Дзержинский район, Дзержинский сельсовет, с. Денисово, на общем кладбище
"
"Братская могила партизан и жителей села, погибших в борьбе за Советскую власть в 1919 году","94.720133523397","56.952464522183","Дзержинский район, с. Канарай
"
"Братская могила 3 партизан, расстрелянных колчаковцами в 1919 г.","95.480947006593","56.691385058468","Дзержинский район, с. Курай
"
"Могила двух партизан, погибших в бою под д. Улюколь с колчаковским отрядом 19 декабря 1919 года","94.862137318046","56.801923441374","Дзержинский район, Шеломковский сельсовет, с. Шеломки, у клуба
"
"Братская могила 12 партизан, погибших в Улюкольском бою в декабре 1919 г.","94.925549025922","56.703005008395","Дзержинский район, д. Улюколь
"
"Братская могила 2 жителей села, расстрелянных колчаковцами за связь с партизанами","95.05817700717","56.627470550485","Дзержинский район, д. Чурюково
"
"Церковь Параскевы Пятницы, 1855-1857 гг.","93.420226111307","56.287116893107","Емельяновский район, д. Барабаново, ул. Горная, 7а
"
"Могила Спиридова Михаила Матвеевича (1796-1854)","92.688730387199","56.168148575083","Емельяновский район, пгт. Емельяново, ул. Московская, 153А, соор. 1
"
"Церковь Святой Троицы","92.688991102583","56.168004423948","Емельяновский район, пгт. Емельяново, ул. Московская, 153, стр. 1
"
"Братская могила тринадцати рабочих-подпольщиков, зверски замученных белогвардейцами в 1919 году
","92.322646968609","56.216184949351","Емельяновский район, п. Памяти 13 Борцов, ул. Советская, соор. 26а
"
"Могила Грибкова Ильи Григорьевича, члена исполкома, убитого кулаками в 1931 г.","92.985423586491","56.340576716762","Емельяновский район, д. Погорелка, в 200 м севернее ул. Центральная, 13
"
"Могила Бородавкина Ильи Сергеевича (1908-1978), Героя Советского Союза","92.826898256636","56.372398766518","Емельяновский район, с. Устюг, кладбище
"
"Церковь Троицкая, сер. ХIХ в.","93.329393698366","56.191966906617","Емельяновский район, с. Частоостровское, ул. Зелёная, 10Б
"
"Образец застройки, ХIХ в.","92.172180853356","58.450918251442","г. Енисейск, ул. Бабкина, 28/52
"
"<Образец застройки>, ХIХ в.","92.172620440968","58.450492167685","г. Енисейск, ул. Бабкина, 29/47
"
"<Образец застройки>, ХIХ в.","92.172013931407","58.450622290098","г. Енисейск, ул. Бабкина, 30/49
"
"Образец застройки, ХIХ в.","92.17277525273","58.450868472842","г. Енисейск, ул. Бабкина, 27/50;
"
"Дом жилой, кон. ХIХ в.","92.171369497544","58.449320639184","г. Енисейск, ул. Бабкина, 38
"
"<Татарская мечеть>, 1892 г.","92.17008731892","58.449912835767","г. Енисейск, ул. Бограда, 41
"
"<Дом жилой (дерево)>, сер. ХIХ в.","92.162789125362","58.450154907048","г. Енисейск, ул. Бограда, 77
"
"Усадьба, кон. ХIХ в.: дом жилой
","92.19361235185","58.453440709037","г. Енисейск, ул. Ванеева, 5
"
"Усадьба, кон. ХIХ в.: флигель (дерево)
","92.193554424168","58.453290222633","г. Енисейск, ул. Ванеева, 7
"
"<Дом Коневского (камень, дерево)>, кон. ХIХ в.","92.192848248966","58.453307224925","г. Енисейск, ул. Ванеева, 6
"
"Здание винного склада, кон. ХIХ в.","92.161382345366","58.455419423899","г. Енисейск, ул. Вейнбаума, 10
"
"Флигель Кобычева, 1837 г.","92.183476049324","58.453733751164","г. Енисейск, ул. Горького, 6
"
"Здание, где в городской больнице в 1828-1830 гг. лечились декабристы Шаховской Федор Петрович и Бобрищев-Пушкин Николай Сергеевич и где умерли Якубович Александр Иванович (1796-1845 гг.), декабрист, Д","92.158483720426","58.44743856792","г. Енисейск, ул. Декабристов, 1
"
"Дом Дементьева, I-я пол. ХIХ в","92.181767250685","58.455079318995","г. Енисейск, ул. Диктатуры пролетариата, 5
"
"Памятник В.И. Ленину. Скульптор Ишханов Ю.П., архитектор Покровский. Материал - бетон, 1961 г.","92.180619366682","58.454734213464","г. Енисейск, ул. Ленина, 116а, соор. 1
"
"Дом, в котором в 1915-1916 годах жили ссыльные члены большевистской фракции IV Государственной Думы - Г.И. Петровский, А.Е. Бадаев, Н.Р. Самойлов, Н.Р. Шагов","92.161278263877","58.455064882781","г. Енисейск, ул. Иоффе, 13
"
"Дом, в котором в начале ХХ века жил полярный исследователь Бегичев Никифор Алексеевич","92.172342787637","58.4482525958","г. Енисейск, ул. Каурова, 31
"
"Застройка улицы: здание женской гимназии, 1890-е гг.
","92.182688386674","58.453294450378","г. Енисейск, ул. Кирова, 68
"
"Застройка улицы: жилой дом (дерево), сер. ХIХ в.
","92.181304465242","58.453425020163","г. Енисейск, ул. Кирова, 70
"
"Застройка улицы: усадьба (дерево), сер. ХIХ в.: дом жилой; ворота
","92.178800129425","58.45378967176","г. Енисейск, ул. Кирова, 76
"
"Усадьба (дерево), 2-я пол. ХIХ в.: дом жилой, ворота
","92.183767302719","58.453966150491","г. Енисейск, ул. Ленина, 91
"
"Застройка улицы: усадьба (дерево), сер. ХIХ в.: дом жилой; ворота
","92.178461374623","58.453841116731","г. Енисейск, ул. Кирова, 78
"
"Амбар ХIХ в.(по решению)/Амбар (дер.), кон. XIX в. (по Указу)
","92.180636946822","58.453538709261","г. Енисейск, ул. Кирова, 72
"
"Дом ХVII века со сводами (по решению)/<Здание присутственных мест>, 1780 г. (по решению и Указу)
","92.179435115695","58.453316562783","г. Енисейск, пер. Партизанский, 8
"
"Дом Дементьевых, 1860 г.","92.178071731805","58.453881511578","г. Енисейск, ул. Кирова, 80
"
"Дом Кытманова, кон. ХIХ в. (по решению)/Усадьба купца Кытманова, кон. XIX в. (по Указу)
","92.176233875641","58.45417532289","г. Енисейск, ул. Кирова, 82
"
"Дом, в котором в 1894-1911 гг. жил Васильев Юлий Николаевич, врач-гуманист, член комитета помощи политссыльным и заключённым","92.194724341237","58.452544939049","г. Енисейск, ул. Ленина, 57
"
"Комплекс жилой застройки, 2-я пол. ХIХ в.: дом жилой (дерево);
","92.193339633449","58.452713164004","г. Енисейск, ул. Ленина, 61 (угол ул. Ванеева)
"
"Комплекс жилой застройки, 2-я пол. ХIХ в.: усадьба (дерево), 2-я пол. ХIХ в.:
флигель; ворота
","92.194756549155","58.452925807972","г. Енисейск, ул. Ленина, 78
"
"Комплекс жилой застройки, 2-я пол. ХIХ в.:
дом жилой с лавкой (дерево), кон. ХIХ в.
","92.194075298993","58.453194964126","г. Енисейск, ул. Ленина, 82
"
"Усадьба Коновалова, 1880-е годы","92.19144207702","58.452942478889","г. Енисейск, ул. Ленина, 67
"
"Дом Щукина, ХIХ в.","92.196890529931","58.452644310298","г. Енисейск, ул. Ленина, 70
"
"<Комплекс жилых зданий (дер.)>, кон. XIX в.","92.196038864754","58.452762287199","г. Енисейск, ул. Ленина, 74
"
"<Комплекс жилых зданий (дер.)>, кон. XIX в.","92.195649253573","58.452802735527","г. Енисейск, ул. Ленина, 76
"
"<Комплекс жилых зданий (дер.)>, кон. XIX в.","92.194346602901","58.452960763135","г. Енисейск, ул. Ленина, 80
"
"Дом Грязнова, II-я пол. ХIХ в. (по решению)/<Дом Грязнова>, 2-я пол. XVIII в. (по Указу)
","92.188110950488","58.453237756988","г. Енисейск, ул. Ленина, 83
"
"Усадьба Неробелова (дерево), кон. ХIХ в.: главный дом
","92.186754514975","58.453507958701","г. Енисейск, ул. Ленина, 87
"
"Усадьба Неробелова (дерево), кон. ХIХ в.: амбар; хлев
","92.186531122656","58.45343684197","г. Енисейск, ул. Ленина, 87 (во дворе)
"
"Усадьба Неробелова (дерево), кон. ХIХ в.: ворота
","92.186959680645","58.453482452353","г. Енисейск, между № 85 и № 87

"
"Усадьба Неробелова (дерево), кон. ХIХ в.: флигель
","92.187165340821","58.45343550279","г. Енисейск, ул. Ленина, 85
"
"Дом Савельева, 1860-1870 гг.","92.182023528705","58.454174859364","г. Енисейск, ул. Ленина, 95
"
"Городская усадьба, кон. ХIХ в.: главный дом
","92.188961525318","58.453613084139","г. Енисейск, ул. Ленина, 98
"
"Городская усадьба, кон. ХIХ в.: флигель
","92.189577141898","58.453531192787","г. Енисейск, ул. Ленина, 96
"
"Городская усадьба, кон. ХIХ в.: амбар
","92.189265865951","58.454167243873","г. Енисейск, ул. Лыткина, 3
"
"Городская усадьба, кон. ХIХ в.: ворота
","92.189813111052","58.453500515079","г. Енисейск, между № 94 и № 96
"
"Городская усадьба, кон. ХIХ в.: ворота
","92.189269704096","58.45355605666","г. Енисейск, между № 96 и № 98
"
"Дом и лавка Захарова, 1860-1870 гг. (по решению)/<Усадьба Захарова>, 1860-1870 гг. (по Указу)
","92.181599800203","58.454269348841","г. Енисейск, ул. Ленина, 97
"
"<Дом Бородкина>, 1909 г.","92.181138937045","58.454293213862","г. Енисейск, ул. Ленина, 99
"
"«Здание келий Христорождественского монастыря», 1830 г.","92.186876192353","58.45479081652","г. Енисейск, ул. Горького, 1"
"«Дом Флеара», 1860 г.","92.180729086416","58.454322764707","г. Енисейск, ул. Ленина, 101"
"<Усадьба Востротина>, XIX в.(по Указу)","92.171156897255","58.455966204615","г. Енисейск, ул. Ленина, 140
"
"Настоятельский корпус Христорождественского монастыря, 1822 г.","92.187686845308","58.453793353561","г. Енисейск, ул. Ленина, 100"
"Усадьба Баландина, сер. XIX в.","92.179989456732","58.454457435736","г. Енисейск, ул. Ленина, 103"
"Воскресенская церковь, 1747 г.","92.184557033801","58.45510850127","г. Енисейск, ул. Ленина, 104"
"«Дом Кытманова», 2-я четв. ХIX в.","92.179547921515","58.45452967225","г. Енисейск, ул. Ленина, 105"
"Дом жилой, XIX в.","92.182945859099","58.454449501928","г. Енисейск, ул. Ленина, 106"
"Дом Деменьтьева, 1820 г.","92.178438611798","58.454286662547","г. Енисейск, ул. Ленина, 109"
"Дом Макарова с магазином, кон. ХIХ в.","92.182074769396","58.454519009067","г. Енисейск, ул. Ленина, 110
"
"Дом с магазином Хнюнина и Коновалова, 2-я пол. ХIХ в.","92.181889177944","58.45458216309","г. Енисейск, ул. Ленина, 112
"
"«Дом Тонконогова», 1860 г.","92.177097257875","58.454782042628","г. Енисейск, ул. Ленина, 113"
"«Здание городского магистрата», 1747–1753 гг. (объект снесен)","92.180365257639","58.455012074052","г. Енисейск, ул. Ленина, 116"
"Здание, где в сентябре 1913 года выступал во время сибирской экспедиции норвежский полярный исследователь Фритьоф Нансен. Здесь в мужской гимназии в 1915-1917 гг. учился революционер-большевик Лыткин","92.177917068453","58.455157245804","г. Енисейск, ул. Ленина, 120
"
"«Дом воеводы», 1722 г.","92.176974857912","58.455204816346","г. Енисейск, ул. Ленина, 122"
"Усадьба Аблина (дерево), кон. ХIХ в.: жилой дом; ворота
","92.166880564137","58.453170606756","г. Енисейск, пер. Марковского, 6
"
"Жилой дом (дерево), 2-я пол. ХIХ в. (утрачен)","92.166783661197","58.452510510248","г. Енисейск, пер. Марковского, 10
(угол ул. Тамарова)
"
"Торговая усадьба Замараева, кон. ХIХ в.: здание магазина
","92.176297816269","58.455286252824","г. Енисейск, ул. Ленина, 124
"
"Жилой дом Музафаровых (дерево), 1914 г.","92.166665674082","58.451877084144","г. Енисейск, пер. Марковского, 16
(угол ул. Перенсона)
"
"Дом, в котором в 1833–1835 гг. жил декабрист М.А. Фонвизин (утрачен)","92.176534059186","58.455244878202","г. Енисейск, ул. Ленина, 124"
"Торговая усадьба Замараева, кон. ХIХ в.: амбар (дерево)
","92.175631375775","58.455351669367","г. Енисейск, ул. Ленина, 126
"
"Дом, в котором в начале марта 1917 г. выступил на собрании Я.М. Свердлов, в мае 1917 г. проходили заседания большевиков Енисейского Совета рабочих, солдатских и крестьянских депутатов","92.173794680249","58.455591838389","г. Енисейск, ул. Ленина, 130
"
"Здание магазина Кытманова, кон. ХIХ в.","92.173866527168","58.455581578307","г. Енисейск, ул. Ленина, 130
"
"Дом с лавкой, 1914 г.","92.180399092086","58.453777802857","г. Енисейск, пер. Партизанский, 3
"
"Усадьба Востротина (дерево), 2-я пол. ХIХ в.: жилой дом; ворота
","92.170539678725","58.455678053037","г. Енисейск, ул. Ленина, 131
"
"<Здание магазина Хнюнина>, 2-я пол. ХIХ в.","92.16992499185","58.455716967213","г. Енисейск, ул. Ленина, 133
(угол ул. Худзинского)
"
"Дом Кузнецова, II-я половина ХIХ в.","92.17969168095","58.452529408373","г. Енисейск, пер. Партизанский, 11а
"
"<Усадьба Лапшина>, XIX в.","92.178654668948","58.451820411209","г. Енисейск, пер. Партизанский, 16
"
"«Троицкая церковь», 1772–1782 гг.","92.174373302198","58.450545019478","г. Енисейск, ул. Перенсона, 34"
"Деревянный резной дом, ХIХ в.","92.166379759463","58.451640658961","г. Енисейск, ул. Перенсона, 67
"
"Застройка улицы: дом Безъязыкова (дерево), кон. ХVIII - нач. ХIХ вв.
","92.165928766879","58.451680617976","г. Енисейск, ул. Перенсона, 69
"
"Застройка улицы: усадьба Неждановых (дерево), кон. ХVIII - нач. ХIХ вв.: дом жилой; ворота
","92.165385351294","58.451736058356","г. Енисейск, ул. Перенсона, 71
"
"Застройка улицы: усадьба Алтынбаевых (дерево), кон. ХIХ в.: дом жилой; флигель;
 амбар
","92.164483106211","58.451826689178","г. Енисейск, ул. Перенсона, 75
"
"Дом, в котором в 1917 году на митинге был создан городской комитет партии большеви-ков под руководством Худзинского Т.И.","92.18274863523","58.455895851878","г. Енисейск, ул. Петровского, 2
"
"<Здание келий Христорождественского монастыря>, 1830 г.","92.184393810376","58.45553102206","г. Енисейск, ул. Горького, 1
"
"<Дом Козицина>, начало ХХ в.
","92.183976328186","58.455447943151","г. Енисейск, ул. Петровского, 1
"
"Дом Востротина, 1860-1870 гг.","92.171498359469","58.456670769655","г. Енисейск, ул. Петровского, 21
"
"<Типография Дементьева>, 1890 г.","92.181329680326","58.455768846633","г. Енисейск
ул. Петровского, 7 (5)
"
"<Усадьба Евсеева>, 1730 г.","92.174779935787","58.456327348847","г. Енисейск, ул. Петровского, 11/2
(дом), ул. Петровского, 11
(флигель)
"
"Комплекс деревянных домов","92.173139654874","58.451684433595","г. Енисейск, ул. Бабкина, 21
"
"Комплекс деревянных домов","92.172595998489","58.45175062596","г. Енисейск, ул. Бабкина, 24
"
"Комплекс деревянных домов","92.171662334358","58.451873273548","г. Енисейск, ул. Фефелова, 105
"
"<Дом Тонконогова>, II-я пол. ХIХ в.","92.183669242541","58.455456711397","г. Енисейск, ул. Петровского, 3
"
"Здание уездного училища, 1822-1825 гг.; 1895 г.; 1901 г.
Дом, в котором в марте 1917 года на собрании енисейских большевиков был избран город-ской комитет РСДРП(б)
","92.175445139589","58.456097065997","г. Енисейск, ул. Бабкина, 1/
ул. Петровского, 9
"
"Дом, в котором с 1909 г. жил, находясь в ссылке, активный участник Самарской, Тульской, Петербургской, Московской, Красноярской партийных организаций Шлихтер Александр Григорьевич, в последствии крупн","92.162545109928","58.455041680622","г. Енисейск, ул. Иоффе, 7
"
"<Богоявленский собор>, 1738-1750 гг.","92.177336384561","58.455930940318","г. Енисейск, пер. Пожарный, 1
"
"Пожарное депо (камень, дерево), кон. ХIХ в.","92.177122263806","58.455463114952","г. Енисейск, пер. Пожарный, 3
"
"Дом Елтышева, 1880 г.
","92.181696377371","58.451873370537","г. Енисейск, ул. Рабоче-Крестьянская, 5"
"Пакгауз Бородкина, сер. ХIХ в.","92.180159725217","58.452415789246","г. Енисейск, ул. Рабоче-Крестьянская, 62
"
"<Дом Бородкина>, 1861 г.","92.180252142595","58.452400295639","г. Енисейск, ул. Рабоче-Крестьянская, 62
"
"Усадьба Бычкова, кон. ХIХ в.: дом жилой; флигель; ворота (дерево)
","92.178107068656","58.452713614902","г. Енисейск, ул. Рабоче-Крестьянская, 70
"
"Дом Пигасова, II-я половина ХIХ века","92.17591194965","58.452978323152","г. Енисейск, ул. Рабоче-Крестьянская, 80
"
"<Спасский монастырь:
Спасская церковь
","92.169537661785","58.452620864401","г. Енисейск, ул. Рабоче-Крестьянская, 101, строение 1
"
"Спасский монастырь: Захарьевская надвратная церковь
","92.170136258798","58.452828477908","г. Енисейск, ул. Рабоче-Крестьянская, 101, строение 3
"
"Спасский монастырь: здание келий; ограда
","92.169407732532","58.452925629229","г. Енисейск, ул. Рабоче-Крестьянская, 101, строение 2
"
"«Здание аптеки», кон. ХIХ в.","92.168065643663","58.453882000982","г. Енисейск, ул. Рабоче-Крестьянская, 106"
"<Здание городской богадельни>, 1865 г.","92.167501869217","58.453931956814","г. Енисейск, ул. Рабоче-Крестьянская, 108
"
"Дом Борзецовой, II-я пол. ХIХ в.","92.167019405629","58.454003884527","г. Енисейск, ул. Рабоче-Крестьянская, 110
"
"Магазин Хнюнина, кон. ХIХ в.: здание магазина; ворота
","92.166549450654","58.45397938442","г. Енисейск, ул. Рабоче-Крестьянская, 112
"
"<Дом Калашникова>, III-я четв. ХIХ в.","92.165902710543","58.454077047565","г. Енисейск, ул. Рабоче-Крестьянская, 114
"
"<Ансамбль Успенской церкви>, 1793-1819 гг.","92.16451971501","58.454164550462","г. Енисейск, ул. Рабоче-Крестьянская, 116
"
"Дом жилой, 2-я пол. ХIХ в./Комплекс деревянных домов
","92.162963482087","58.454224100039","г. Енисейск, ул. Рабоче-Крестьянская, 118
"
"Комплекс деревянных домов","92.164138830267","58.453835015288","г. Енисейск, ул. Рабоче-Крестьянская, 121
"
"Комплекс деревянных домов","92.163657634042","58.453853323442","г. Енисейск, ул. Рабоче-Крестьянская, 123
"
"Дом Урушева, 1890 г.","92.176039675427","58.451890756827","г. Енисейск, ул. Фефелова, 80
"
"Флигель усадьбы (дерево), 2-я пол. ХIХ в.","92.173508825357","58.451643921822","г. Енисейск, ул. Фефелова, 97
"
"Комплекс деревянных домов","92.186521547687","58.450215201465","г. Енисейск, ул. Фефелова, 44
"
"Комплекс деревянных домов","92.171107814793","58.451966197025","г. Енисейск, ул. Фефелова, 107
"
"Комплекс деревянных домов","92.170358855236","58.452063221574","г. Енисейск, ул. Фефелова, 109
"
"Флигель усадьбы (дерево), кон. ХIХ в.","92.169528591338","58.451703986138","г. Енисейск, ул. Худзинского, 21а
"
"Дом жилой (дерево), кон. ХVIII - нач. ХIХ вв.","92.164301731771","58.45278924042","г. Енисейск, ул. Тамарова, 13
"
"Усадьба (дерево), кон. ХIХ в.: дом жилой
","92.169543827344","58.452142388907","г. Енисейск, ул. Худзинского, 18
"
"Здание, где в 1917 г. была создана и находилась жилищно-бытовая коммуна ссыльных большевиков и политический клуб большевиков","92.168704102147","58.451750917717","г. Енисейск, ул. Худзинского, 22
"
"Могила Щетинина Прокопия Дмитриевича (1908-1979), полного кавалера ордена Славы","92.14660268055","58.453353569734","г. Енисейск, ул. Перенсона, 129 (городское кладбище)
"
"Могила Кытманова Александра Игнатьевича (1858–1919 гг.), основателя Енисейского музея","92.146235280917","58.453318954602","г. Енисейск, ул. Перенсона, 129 (городское кладбище)"
"Братская могила 19-ти гвардейцев-татар - участников Енисейско-Маклаковского восстания в феврале 1919 года","92.146505603934","58.453138462312","г. Енисейск, ул. Бограда, 121 (городское кладбище)
"
"Братская могила 300 участников Енисейско-Маклаковского восстания, замученных и расстрелянных колчаковцами в феврале 1919 года","92.14615840101","58.453114704456","г. Енисейск, ул. Перенсона, 129 (городское кладбище)"
"Братская могила 242 активных участников Енисейско-Маклаковского восстания, замученных и расстрелянных колчаковцами в феврале 1919 года","92.161480555321","58.454856452511","г. Енисейск, ул. Иоффе, 1А
"
"Братская могила двадцати партизан и участников Енисейско-Маклаковского восстания, зверски замученных 7 февраля 1919 года колчаковским карательным отрядом","92.71499322629","58.110525709804","Енисейский район, Абалаковский сельсовет, с. Абалаково, на общем кладбище
"
"Дом, в котором в 1883 году жили инженерно-технические работники, руководившие строительством Обь-Енисейского канала","89.288247860758","59.430958827709","Енисейский район, п. Александровский шлюз"
"Александровский шлюз, сооружённый в середине 90-х годов ХIХ века","89.295766054582","59.433286720331","Енисейский район, п. Александровский шлюз"
"Георгиевский шлюз, сооружённый в середине 90-х годов ХIХ века","89.192563539348","59.399909982832","Енисейский район, выше п. Александровский шлюз на 10 км по р. Малый Кас
"
"Церковь Николаевская, 1881 г.","91.85940455346","58.874073388049","Енисейский район, д. Анциферово, ул. Шаробаева, 9а
"
"Братская могила четырнадцати партизан, замученных и расстрелянных в феврале 1919 года колчаковским карательным отрядом","92.267741155442","58.390397476671","Енисейский район, Верхнепашинский сельсовет, с. Верхнепашино, на южной окраине села
"
"Церковь Николаевская, 1829 г.","92.465325386067","58.342312309407","Енисейский район, д. Каменск, ул. Большая, 10
"
"Могила Башкирова А.А. - большевика, члена Курагинского сельсовета, активного участника организатора колхоза в д.Савино, убитого 9 июня 1931 года кулаками","93.004608167157","58.014207490818","Енисейский район, Новокаргинский сельсовет, д. Савино, в центре деревни
"
"Братская могила одиннадцати партизан, зверски замученных колчаковским карательным отрядом в июне 1919 г.","93.007928123379","58.090942566897","г. Лесосибирск, г. п. Стрелка, ул. Борцов революции, 5б
"
"Братская могила участников Енисейско-Маклаковского восстания против колчаковского режима в феврале 1919 года","92.443795193944","58.254425865648","г. Лесосибирск, ул. Мичурина, 1г
"
"Братская могила 28 партизан, расстрелянных колчаковским карательным отрядом 12 февраля 1919 года","92.145340260414","58.414313092984","Енисейский район, Верхнепашинский сельсовет, д. Горская, на северной окраине деревни
"
"Братская могила двух участников восстания против колчаковского режима, зверски замученных 18 февраля 1919 года","91.941751983328","58.441263924599","Енисейский район, Плотбищенский сельсовет, с. Плотбище, на общем кладбище
"
"Усадьба М.Ф. Дуракова, кон. ХIХ в.","91.960205375392","58.441393487999","Енисейский район, с. Плотбище, ул. Советская, 19"
"Братская могила жителей села, казнённых колчаковцами в феврале 1919 г.","91.88803237315","58.056206525506","Енисейский район, с. Чалбышево
"
"Народный дом, первый очаг культуры на селе, открытый в 1925 г.","90.233845133468","60.244364005299","Енисейский район, с. Ярцево, ул. Советская, 23"
"Могила секретаря комсомольской ячейки А.Е. Мочалина, погибшего при ликвидации бандгруппы в июне 1931 года","92.841758127615","53.226903928653","Ермаковский район, с. Григорьевка, ул. Заправочная, 2а"
"Дом, в котором в июне 1899 г. жил соратник В.И. Ленина по Петербургскому союзу борьбы за освобождение рабочего класса А.А. Ванеев, находясь в ссылке","92.399978806517","53.27954840166","Ермаковский район, с. Ермаковское, ул. Суркова, 96
"
"Дом, в котором в 1898-1900 годах жил в ссылке революционер Курнатовский Виктор Константинович","92.396996646802","53.275160155484","Ермаковский район, с. Ермаковское, ул. Буденного, 78
"
"Дом, где жил политический ссыльный Сильвин Михаил Александрович, у которого в 1899 г. бывал В.И. Ленин","92.411881950856","53.277890643268","Ермаковский район,
с. Ермаковское, ул. Карла Маркса, 17
"
"Дом, в котором Ленин Владимир Ильич проводил совещание 17 социал-демократов в 1899 г.","92.396882692627","53.276259585949","Ермаковский район, с. Ермаковское, пл. Энгельса, 8"
"Усадьба крестьянина-середняка с жилым домом, амбаром, баней, двумя навесами, XIX в. (филиал музея-заповедника)/ Дом, где в квартире политссыльного Ванеева Анатолия Александровича в августе 1899 г. на","92.412384506255","53.277801901846","Ермаковский район, с. Ермаковское, ул. Карла Маркса, 15
"
"Могила Ванеева Анатолия Александровича (1872-1899)","92.396337291188","53.280656851194","Ермаковский район, с. Ермаковское, ул. Пролетарская, 64В
"
"Братская могила участников Минусинского крестьянского восстания, расстрелянных колчаковцами в ноябре 1919 г.","92.220852892125","53.136559883714","Ермаковский район, с. Мигна, ул. Щетинкина, 57б
"
"Братская могила четырнадцати партизан, расстрелянных белоказаками в ноябре 1918 года","92.342900432271","53.31539738488","Ермаковский район, Ермаковский сельсовет, д. Николаевка, ул. Красных Партизан, 25А"
"Братская могила 3 коммунистов, погибших от рук кулаков в 1920 и 1928 гг.","92.319836414617","54.227709040435","Идринский район, с. Большая Салба"
"Место гибели большевика Насонова Тимофея Григорьевича, убитого во время кулацкого восстания в июне 1918 года","92.067350385447","54.294038259301","Идринский район, с. Большой Телек
"
"Братская могила трёх коммунистов-организаторов колхозов, зверски убитых кулаками в октябре 1928 г.","91.942167555116","54.424599303926","Идринский район, с. Большой Хабык, в ограде сельского клуба
"
"<Церковь Михаила Архангела>, руб. ХIХ-ХХ вв.","92.051647861213","54.530924758772","Идринский район, с. Новоберёзовка, ул. Зеленая, 10
"
"Братская могила Чернявского Григория Максимовича (1907-1936 гг.), лётчика и Федотова Ивана Кузьмича (1896-1936 гг.), инженера, погибших в авиакатастрофе при выполнения государственного задания","86.610964276324","67.464426327483","г. Игарка, ул. Большого театра, 20
"
"Памятник В.И. Ленину. Автор С. Райзман, скульптура чугунная, постамент железобетонный, 1964 г.","86.567249336935","67.467176682421","г. Игарка, Октябрьская площадь"
"Водонапорная башня, у стены которой были расстреляны рабочие паровозного депо - участники Канско-Иланского восстания против колчаковского режима 27 декабря 1918 года (мемориальная зона)","96.070459579509","56.241077035627","Иланский район, г. Иланский, ул. Профсоюзная, 16
"
"Обелиск в память иланских рабочих, расстрелянных колчаковским отрядом за участие в вооружённом Канско-Иланском восстании против колчаковского режима 27 декабря 1918 года","96.070477773911","56.241183905992","Иланский район, г. Иланский, ул. Профсоюзная, 16а
"
"Комплекс, нач. ХХ в.: здание мельницы (дерево); амбар (дерево)

","95.809071874214","55.442862975077","Ирбейский район, с. Благовещенка
"
"Амбар с галереей (мангазин), кон. ХIХ – нач. ХХ вв.","95.231873516904","55.448574665234","Ирбейский район, с. Ивановка"
"Место казни карателями в 1918 году партизан и жителей села","95.473347661801","55.650430277738","Ирбейский район, с. Ирбейское, на пересечении улиц Ленина и Красноярской, на высоком берегу реки Кан
"
"Здание конторы ссудо-сберегательного товарищества, 1912 г.","95.487820822697","55.655707007761","Ирбейский район, с. Ирбей, ул. Кооперативная, 54
"
"Дом жилой, кон. ХIХ в.","95.241808767765","55.841826593689","Ирбейский район, д. Каменка, ул. Центральная, 39
"
"Дом жилой, кон. ХIХ - нач. ХХ вв.","95.24338107579","55.840982444562","Ирбейский район, д. Каменка, ул. Центральная, 42
"
"Мельница с амбаром (дерево), нач. ХХ в.","95.326286797802","55.457487749962","Ирбейский район, д. Новотроицк
"
"Комплекс деревянной застройки: церковь Ильи Пророка, 1911 г.
","95.288711949326","55.803053009313","Ирбейский район, с. Усть-Яруль, ул. Тотмина, 48а
"
"Комплекс деревянной застройки: дом купца Садырина с лавкой (дерево), 1876-1877 гг.
","95.2874820401","55.803521204371","Ирбейский район,
с. Усть-Яруль, ул. Тотмина, 80
"
"Комплекс деревянной застройки: дом жилой, 1970 г.
","95.287812014068","55.803300459625","Ирбейский район, с. Усть-Яруль, ул. Тотмина, 76
"
"Могила Тотмина Николая Яковлевича (1919–1942), Героя Советского Союза. Перезахоронен в 1994 г.","95.288171603489","55.797901820935","Ирбейский район, с. Усть-Яруль, кладбище"
"Комплекс врачебно-переселенческого пункта (дерево), 1910-1913 гг.:
      здание больницы;
      заразный барак;
      здание аптеки и амбулатории;
      здание кухни и квартиры служителей;
      баня-","95.663918337862","55.408683165498","Ирбейский район, с. Талое, ул. Центральная"
"Усадьба жилая (дерево), кон. ХIХ в.","95.673935015244","55.720910487616","Ирбейский район, д. Хомутово
"
"Могила Мокина Гаврилы Арсеньевича, партизанского связного, расстрелянного колчаковцами в апреле 1919 г.","93.27121590464","57.635209802656","Казачинский район, Галанинский сельсовет, с. Галанино, кладбище
"
"Дом, в котором в 1915–1916 гг. жили в ссылке революционеры Лебедева Ада Павловна, Вейнбаум Григорий Спиридонович","93.276007872195","57.687071055824","Казачинский район, Казачинский сельсовет, с. Казачинское, ул. Советская, 54"
"Братская могила 18 партизан и коммунистов, расстрелянных и утопленных в реке в феврале 1919 года карательным отрядом","93.277292331833","57.71107896843","Казачинский район, Казачинский сельсовет, с. Казачинское, на общем кладбищ"
"Обелиск в память двенадцати партизан, утопленных казачьим отрядом в феврале 1919 года","93.287339397995","57.696997621241","Казачинский район, Казачинский сельсовет, с. Казачинское, устье речки Чёрной
"
"Братская могила семнадцати партизан, погибших в бою с колчаковской дружиной при освобождении села Момотово летом 1919 года","93.307391744898","57.621647078775","Казачинский район, Момотовский сельсовет, с. Момотово, на общем кладбищ"
"Братская могила 2 партизан, погибших в бою с колчаковцами в 1919 г.","93.155115012289","57.618257632118","Казачинский район, Рождественский сельсовет, с. Рождественское
"
"Усадьба Бутусовых, нач. ХХ в.:
      дом жилой;
      зимовье для птицы;
      хлев;
      баня;
      летник для скота;
      поднавес с дровяником;
      чулан с погребом
","93.150426653287","57.617818241874","Казачинский район, Рождественский сельсовет, с. Рождественское, ул. Ленина, 14
"
"Здание земской больницы, 1900 гг.","93.639421987414","57.579486292755","Казачинский район, Новотроицкий сельсовет, д. Широково
"
"Баня городская, 1913 г.","95.69568664355","56.206215348096","г. Канск, ул. Бородинская, 17
"
"<Дом жилой>, 1911 г.","95.694287727065","56.206857506889","г. Канск, ул. Всеобуча, 14
"
"<Дом жилой (дерево)>, кон. ХIХ - нач. ХХ вв. (утрачен)","95.704468537888","56.200100054051","г. Канск, ул. им. газеты <Власть Советам>, 3
"
"<Дом Горловых (дерево)>, 1901 г.","95.716798539185","56.207454029435","г. Канск, ул. Кайтымская, 1
"
"<Дом жилой (дерево, кирпич)>, кон. ХIХ в. (утрачен)","95.710446524629","56.208296341377","г. Канск
ул. Кайтымская, 41
"
"Усадьба городская (дерево), 1897 г.: дом жилой
","95.710105402158","56.208373571297","г. Канск, ул. Кайтымская, 43, стр. 1
"
"Усадьба городская (дерево), 1897 г.: дом жилой
","95.710119551432","56.208437646843","г. Канск, ул. Кайтымская, 43, стр. 2
"
"Доходный дом с воротами (дерево), кон. ХIХ в.","95.709174910281","56.208420793798","г. Канск, ул. Кайтымская, 49
"
"Доходный дом с воротами (дерево), кон. ХIХ в./
<Дом доходный (дерево)>, 1906 г.
","95.702188316357","56.208321529318","г. Канск, ул. Кайтымская, 75
"
"Дом доходный (дерево), 1911 г.","95.700518047629","56.208390219994","г. Канск, ул. Кайтымская, 85
"
"<Дом жилой (дерево)>, кон. ХIХ - нач. ХХ вв.","95.698793487117","56.208508362382","г. Канск, ул. Кайтымская, 93
"
"Усадьба Сахарова (дерево), 1911 г.: главный дом, ворота
","95.696357185693","56.208910279074","г. Канск, ул. Кайтымская, 109
"
"Дом Чевелева, 1906 г.","95.70594102902","56.206382991225","г. Канск, пл. Коростелева, 1
"
"Дом Чевелева, 1906 г.","95.707134013157","56.206372968278","г. Канск, пл. Коростелева, 2
"
"Дом, в котором с сентября 1917 года по июнь 1918 года размещался штаб Красной Гвардии по борьбе с контрреволюцией","95.699993210008","56.207087145845","г. Канск, ул. Коростелева, 8
"
"Комплекс мельницы Филимонова, 1900-е гг.: производственный корпус;
","95.721282690424","56.206475458363","г. Канск, ул. Краснопартизанская, 19, стр. 3
"
"Дом, где в 1917-1918 гг. размещался объединенный Совет рабочих, солдатских и крестьянских депутатов (утрачен)","95.699437333519","56.205478916163","г. Канск, ул. Коростелева, 15
"
"Дом жилой, руб. ХIХ-ХХ вв.","95.702081630893","56.203248130439","г. Канск, ул. Коростелева, 34
"
"Усадьба Шарапова (дерево), 1903 г.","95.722744413642","56.206454002934","г. Канск, ул. Краснопартизанская, 17
"
"Усадьба Шарапова (дерево), 1903 г.","95.721983079976","56.206578079272","г. Канск, ул. Краснопартизанская, 17а
"
"Комплекс мельницы Филимонова, 1900-е гг.:
контора
","95.72107630564","56.206823393301","г. Канск, ул. Краснопартизанская, 19, стр. 4
"
"Комплекс мельницы Филимонова, 1900-е гг.:
фрагмент ограды
","95.720944508319","56.206321937576","г. Канск, ул. Краснопартизанская, 19
"
"Городская усадьба (дерево), нач. ХХ в.: главный дом; амбар со стаей; амбар с завозней
","95.708342411185","56.207263996041","г. Канск, ул. Краснопартизанская, 65
"
"Общественное здание, нач. ХХ в.","95.702704901534","56.207043986657","г. Канск, ул. Краснопартизанская, 66
"
"<Здание училища (дерево)>, 1909 г.","95.707188225418","56.207278546156","г. Канск, ул. Краснопартизанская, 69
"
"Торговое здание, 1909 г.","95.705634111433","56.207355493875","г. Канск, ул. Краснопартизанская, 71, стр. 5
"
"<Дом жилой>, нач. ХХ в.","95.702575240468","56.207390211166","г. Канск, ул. Краснопартизанская, 77
"
"Усадьба (дерево), 1900-е гг.: жилой дом; ворота
","95.694857787049","56.207161642985","г. Канск, ул. Краснопартизанская, 94
"
"Усадьба (дерево), 1901 г.: жилой дом; ворота
","95.695630416409","56.207745728656","г. Канск, ул. Краснопартизанская, 103
"
"Дом, в котором в 1919-1923 гг. жил автор первого советского романа <Два мира> Зазубрин Владимир Яковлевич (Зубцов)","95.695052184226","56.207736874039","г. Канск, ул. Краснопартизанская, 105
"
"Дом Степановых, в котором в 1918 г. производилась передача оружия, медикаментов и сведений о колчаковцах партизанам Северо-Канского фронта","95.694610777672","56.207757227107","г. Канск, ул. Краснопартизанская, 109
"
"<Здание технического училища>, 1949 г.","95.728869573517","56.191316958564","г. Канск, ул. Красноярская, 24, стр. 6
"
"<Доходный дом>, кон. ХIХ в.","95.705335257377","56.208032718154","г. Канск, ул. Ленина, 2
"
"<Здание казначейства>, 2-я пол. ХIХ в., 1911 г.","95.704625639667","56.205065044134","г. Канск, ул. Ленина, 5
"
"Торгово-жилая усадьба (дерево), нач. ХХ в.: лавка
","95.704210356839","56.203131829047","г. Канск, ул. Парижской Коммуны, 62
"
"Торгово-жилая усадьба (дерево), нач. ХХ в.: дом жилой
","95.704600451935","56.203203776664","г. Канск, ул. Ленина, 7
"
"<Торговая лавка>, 1896 г./Магазины, кон. ХIХ в.
","95.704550210239","56.201396711684","г. Канск, ул. Ленина, 15
"
"Братская могила шести железнодорожных рабочих со станции Теплые Ключи, участников Канско-Иланского восстания, расстрелянных 14 июля 1919 года колчаковским карательным отрядом","95.679570242009","56.19846393384","г. Канск, ул. Локомотивная, у железнодорожного полотна (на месте расстрела)
"
"Учебное здание, нач. ХХ в.","95.693732329427","56.20415469163","г. Канск, ул. Мира, 6
"
"Корпуса винной монополии, кон. ХIХ в.","95.720040372502","56.204158077942","г. Канск, ул. Московская, 12
стр. 2 (контора)
"
"Корпуса винной монополии, кон. ХIХ в.","95.719791244116","56.204174290569","г. Канск, ул. Московская, 12, стр. 4 (дом директора (приемная)
"
"Корпуса винной монополии, кон. ХIХ в.","95.719817674515","56.203867875701","г. Канск, ул. Московская, 12, стр. 5 (хранилище спирта, материальный склад)
"
"Корпуса винной монополии, кон. ХIХ в.","95.720320859924","56.203905092797","г. Канск, ул. Московская, 12, стр. 9 (главный корпус)
"
"Корпуса винной монополии, кон. ХIХ в.","95.720233606652","56.204304059753","г. Канск, ул. Московская, 12, стр. 11 (конюшя и коровник)
"
"Корпуса винной монополии, кон. ХIХ в.","95.72046781195","56.204213057692","г. Канск, ул. Московская, 12, стр. 13 (дом специалистов)
"
"Корпуса винной монополии, кон. ХIХ в.","95.719969049328","56.204374267225","г. Канск, ул. Московская, 12, соор. 2 (каменное ограждение)
"
"Дом жилой (дерево), 1905 г.","95.714773538959","56.204955275227","г. Канск, ул. Московская, 29
"
"Усадьба (дерево), нач. ХХ в.: жилой дом; ворота
","95.712646263473","56.205093187907","г. Канск, ул. Московская, 41
"
"Дом жилой (дерево), кон. ХIХ в.","95.709094431606","56.205369601015","г. Канск, ул. Московская, 47
"
"Усадьба (дерево), кон. ХIХ в.: жилой дом; ворота
","95.708683029127","56.205405443676","г. Канск, ул. Московская, 49
"
"<Здание синематографа <Фурор>, 1905 г.","95.708388686126","56.205599684608","г. Канск, ул. Московская, 51
"
"<Дом жилой (дерево)>, 1942 г.","95.70080034027","56.203780485298","г. Канск, ул. Московская, 67
"
"<Собор Спасский>, 1804 г., 1912 г.","95.706267238187","56.204455010869","г. Канск, ул. Московская, 68
"
"Ворота ограды Спасского собора, 2-я пол. ХIХ в.","95.705516429953","56.204455349283","г. Канск, напротив нежилого здания по ул. Московская, 70
"
"Дом Гадалова, 1902 г.","95.704565833727","56.204079105958","г. Канск, ул. Московская, 70
"
"Торговое здание, нач. ХХ в.","95.703816930736","56.204379858764","г. Канск, ул. Московская, 72
"
"<Дом жилой (дерево)>, кон. ХIХ в.","95.698027764123","56.202542589174","г. Канск, ул. Бородинская, 41
"
"Усадьба (дерево), кон. ХIХ в.: дом жилой; амбар","95.695576508534","56.202177561249","г. Канск, ул. Московская, 87
"
"Усадьба священника, кон. ХIХ в.: главный дом (дерево); флигель (дерево)
","95.712656991439","56.206062763718","г. Канск, ул. Пролетарская, 23
"
"<Дом жилой (дерево)>, 1911 г.","95.713108326029","56.203321826849","г. Канск, ул. Пролетарская, 48/1
"
"<Дом жилой с магазином>, 1893 г.","95.707934290822","56.204889324115","г. Канск, ул. Советская, 8, стр. 1
"
"Городская усадьба (дерево), 1890-е гг.: дом жилой (дерево)

","95.694595438866","56.2056864967","г. Канск, ул. Урицкого, 29
"
"Городская усадьба (дерево), 1890-е гг.: дом жилой (дерево)
","95.694479347579","56.205678296251","г. Канск, ул. Урицкого, 29А
"
"Городская усадьба (дерево), 1890-е гг.: флигель; амбар; ворота
","95.694503457231","56.205747521631","г. Канск, ул. Урицкого, 29А/2
"
"Дом Заблотских (дерево), кон. ХIХ в.","95.694345430686","56.205278806134","г. Канск, ул. Урицкого, 40
"
"Братская могила партизан и жителей г. Канска, расстрелянных колчаковцами весной 1919 г.","95.6797464389","56.205059594485","г. Канск, ул. Фрунзе
"
"Дом жилой (дерево, кирпич), кон. ХIХ в.","95.710397933863","56.206312179512","г. Канск, ул. 30 лет ВЛКСМ, 14
"
"Здание гимназии, кон. ХIХ в.","95.711176568826","56.205887328573","г. Канск, ул. 30 лет ВЛКСМ, 16"
"Памятник Герою Советского Союза, польской патриотке Аннеле Тадеушевне Кживонь","95.736746786148","56.198219915874","г. Канск, Территория лесодеревообрабатывающего комбината
"
"Братская могила 15 жителей д. Комарово - активных участников борьбы против колчаковщины - были летом 1919 г. арестованы карательным отрядом и расстреляны, здесь же похоронены","95.681390006835","56.203645039024","г. Канск, площадь <15 борцов>
"
"Обелиск первому председателю Канского объединённого Совета рабочих, солдатских депутатов, повешенного в ночь с 26 на 27 марта 1919 года белогвардейцами","95.706260114156","56.205651667423","г. Канск, пл. имени Н.И. Коростелева
"
"Братская могила Коростелева Н.И., первого председателя Канского объединенного Совета рабочих, солдатских и крестьянских депутатов, Петрушина Д.С. - профессионального революционера и боевых командиров","95.706367890758","56.203766026571","г. Канск, в сквере им. В.И. Ленина
"
"Могила Кублицкого Алексея Александровича (1919–1989), Героя Советского Союза","95.697083828991","56.18039307739","г. Канск, городское кладбище  на Абанской горе"
"Могила Шатова Петра Ивановича (1922-1991), полного кавалера ордена Славы","95.698413525289","56.180149429495","г. Канск, городское кладбище на Абанской горе
"
"Братское кладбище воинов Советской Армии - участников Великой Отечественной войны 1941-1945 гг., похороненных госпиталями","95.733147659562","56.213510798638","г. Канск, на Кан-Перевозенском кладбище
"
"Братская могила партизан, казнённых колчаковцами 11 января 1920 г.","95.866005115291","56.059401228453","Канский район, с. Бражное"
"Здание Крестьянского кредитного товарищества (дерево), 1902–1905 гг.","95.489419455418","56.028665116696","Канский район, с. Большая Уря, ул. Московская, 43"
"Дом жилой (дерево), 1923 г.","95.488882210732","56.029250042166","Канский район, с. Большая Уря, ул. Гоголя, 4
"
"Комплекс станционных построек. 1900-е гг. : здание вокзала (дерево); водонапорная башня
","95.331635506964","56.112400910091","Канский район, п. Бошняково, ул. Привокзальная, 23, стр. 1 (водонапорная башня)
"
"Братская могила жертв белогвардейского террора","95.024179402082","56.191488620322","Канский район, д. Комарово
"
"Усадьба Ужарова (дерево), кон. ХIХ в.: дом; ворота
","95.035562147729","56.187966364732","Канский район, д. Комарово, ул. Свободы, 9
"
"Усадьба (дерево), кон. ХIХ в.: дом; ворота
","95.033670985215","56.190406144818","Канский район, д. Комарово, ул. Свободы, 25
"
"Могила неизвестного партизана, расстрелянного колчаковцами в 1919 г.","95.024230947193","56.191279902889","Канский район, д. Комарово, кладбище
"
"Дом жилой (дерево), кон. ХIХ в.","95.789954220552","55.788379474727","Канский район, д. Подъянда
"
"Братская могила партизан, погибших в бою с колчаковцами в 1919 г.","95.505886200264","56.440310325739","Канский район, д. Тайна
"
"Усадьба Сиваковой (дерево), нач. ХХ в.: дом; ворота
","95.203004760567","56.33942643126","Канский район, с. Хаерино, ул. Молодёжная, 38
"
"Усадьба (дерево), нач. ХХ в.: дом жилой; ворота
","95.20966016625","56.337097689171","Канский район, с. Хаерино, ул. Советская, 13
"
"Обелиск участникам Минусинского восстания против колчаковщины, погибшим в ноябре 1918 года в селе Городок и г. Минусинске","92.869323774281","53.603056906011","Каратузский район, с. Каратузское, на территории районного Дома культуры
"
"Могила Комарова Григория Васильевича (1913-1976), Героя Советского Союза","92.849339226397","53.596353299144","Каратузский район, с. Каратузское, кладбище
"
"Братская могила шести партизан, расстрелянных колчаковцами в ноябре 1918 года","92.91032128348","53.761198104416","Каратузский район, Качульский сельсовет, с. Качулька, на территории клуба
"
"Могила Калинина Сергея Ивановича, комсомольца, погибшего в схватке с кулацкой бандой в 1930 г.","93.078686554547","53.537466276435","Каратузский район, с. Нижний Кужебар, кладбище
"
"Братская могила участников Минусинского восстания, расстрелянных колчаковским карательным отрядом в ноябре 1918 года","92.789380971143","53.646338866165","Каратузский район, Сагайский сельсовет, с. Сагайское, в центре села
"
"Могила Кудрина Дмитрия Феопентовича (1908-1991), Героя Советского Союза","94.593792865129","56.098689791567","ЗАТО г. Зеленогорск, городское кладбище, центральная аллея
"
"Братская могила шести участников Минусинского восстания против колчаковщины, расстрелянных карательным отрядом в ноябре 1918 года","92.812515959681","53.73986471414","Каратузский район, Уджейский сельсовет, с. Уджей, в центре села
"
"Братская могила трех организаторов восстания, расстрелянных колчаковцами 18 ноября 1919 года","92.808343776106","53.733913246803","Каратузский район, Уджейский сельсовет, с. Уджей, на горке, с южной стороны села
"
"Здание завода, одного из центров революционного движения и борьбы за Советскую власть в районе","92.810915413689","53.741579121173","Каратузский район, д. Уджей
"
"Братская могила трех политссыльных, зверски убитых карательным отрядом весной 1919 года","99.159287525241","58.590297673589","Кежемский район, г. Кодинск, городское кладбище
"
"Церковь Николаевская, 1840 г.","91.583080214688","56.18678151736","Козульский район, Лазурненский сельсовет, д. Большой Кемчуг, ул. Центральная, 15В
"
"Братская могила борцов за власть Советов, казнённых колчаковцами в августе 1919 г.","91.687974461587","56.076415448469","Козульский район, с. Жуковка, кладбище
"
"Дом, в котором в 1922-1941 гг. жил Герой Советского Союза Солонченко Владимир Данилович","91.082579897591","56.270027756909","Козульский район, р. п. Новочернореченский, ул. Солонченко, 129
"
"Могила воина Советской Армии Макарова Н.И., погибшего 11 июня 1945 года при выполнении задания командования","91.090706624726","56.272159649845","Козульский район, р. п. Новочернореченский, ул. Железнодорожная, 22а
"
"Братская могила партизан, рабочих и жителей Ачинского уезда, расстрелянных колчаковцами в               1919 г.","91.770717653105","56.068814022357","Козульский район, 2 км от п. Сергино
"
"Дом, где 1 февраля 1900 г. останавливались В.И. Ленин и Н.К. Крупская","91.573097006858","54.320344176914","Краснотуранский район, с. Краснотуранск, ул. Надежкина, 2б
"
"Братская могила семнадцати партизан с командиром партизанского отряда, погибших при освобождении от колчаковцев с. Краснотуранского","91.560128488029","54.317057997609","Краснотуранский район, с. Краснотуранское, в центре села
"
"Братская могила партизан, погибших в бою с колчаковцами в сентябре 1919 г.","91.700119924811","54.495496720166","Краснотуранский район, с. Кортуз
"
"Могила Козюты Ивана Сергеевича (1898-1924 гг.), председателя сельского Совета, погибшего от рук кулаков","91.699385534183","54.495402977268","Краснотуранский район, с. Кортуз
"
"Могила комсомольца Чмыхало, погибшего от рук кулаков в феврале 1930 г.","91.574165463139","54.19556864182","Краснотуранский район, с. Лебяжье
"
"Могила Колмакова Семёна Сергеевича (1920-1991), полного кавалера ордена Славы","93.461054429517","54.350106936014","Курагинский район, г. Артёмовск, кладбище
"
"Могила пионера Монаенко Алеши, убитого в сентябре 1938 года кулаками","92.797638210963","53.934157120422","Курагинский район, Берёзовский сельсовет, с. Берёзовка (около Дома культуры)
"
"Церковь Вознесения, нач. ХХ в.","92.492222032714","53.816428928563","Курагинский район, с. Кочергино, ул. Советская, 23
"
"Могила Тютчева Алексея Ивановича (1801-1856), декабриста","92.674292083708","53.882947921721","Курагинский район, р. п. Курагино, ул. Партизанская,
парк им. 40-летия Победы
"
"Могила инженера-изыскателя ж. д. трассы <Абакан-Тайшет> Стофато К.А., погибшего в октябре 1942 года при исполнении служебных обязанностей","93.374200515879","54.427714538807","Курагинский район, Сисимский сельсовет, разъезд Стофато
"
"Могила инженера-изыскателя ж. д. трассы <Абакан-Тайшет> Кошурникова А.М., погибшего в октябре 1942 года при исполнении служебных обязанностей","94.203194874893","53.684789744142","Курагинский район, Черемшанский сельсосовет, п. Казыр, ул. Нижне-Казырская
(бывшая деревня Нижняя Тридцатка)
"
"<Церковь Троицкая>, сер. ХIХ в.","92.283062300617","53.940386259483","Курагинский район, с. Шалоболино, ул. Карла Маркса, 23а
"
"Могила Шульца Михаила Михайловича (1924-1982), Героя Советского Союза","93.555701303047","56.266024812264","ЗАТО г. Железногорск, городское кладбище
"
"Могила Степанова Ивана Георгиевича (1916-1988), Героя Советского Союза","93.551319481324","56.269605579672","ЗАТО г. Железногорск, ул. Тихая, городское кладбище, главная аллея
"
"Могила Алдошина Павла Петровича (1920-1992), полного кавалера ордена Славы","94.595182958392","56.098886406639","ЗАТО г. Зеленогорск
городское кладбище, центральная аллея
"
"Могила Арсеньева Ивана Николаевича (1918-1984), Героя Советского Союза","94.594206667477","56.099413963916","ЗАТО г. Зеленогорск, городское кладбище, центральная аллея
"
"Могила Киренского Леонида Васильевича (1909-1969 гг.), учёного-физика","92.762676352452","55.991498899142","г. Красноярск, находится перед сосновым бором напротив здания главного корпуса Института физики им. Л.В. Киренского СО РАН (г. Красноярск, Академгородок, 50, стр. 38)
"
"Братская могила венгерских коммунистов, расстрелянных колчаковцами за участие в восстании 3-го и 31-го стрелковых полков в июле 1918 года","92.936789210123","56.047061321691","г. Красноярск, находится на территории кадетского корпуса имени А.И. Лебедя (ул. Малиновского, 20а) к северо-востоку от главного корпуса
"
"<Доходный дом Ковского>, 1896-1897 гг., 1912-1915 гг., дек. 1918 г. - май 1919 г.","92.860537814273","56.007674412812","г. Красноярск, ул. Бограда, 92
"
"Дом жилой, 1908–1909 гг.","92.848402235865","56.006909193409","г. Красноярск, ул. Бограда, 106"
"Дом жилой Е.И. Потехина, 19-нач. 20 в., в котором в начале 1940-х гг. жил В.Ф. Войно-Ясенецкий, выдающийся хирург и духовный писатель, св. архиепископ Лука","92.870559049844","56.013897481708","г. Красноярск, ул. Вейнбаума, 21
"
"Здание духовной семинарии, 1906-1907 гг.","92.849591321922","56.0063810188","г. Красноярск, ул. Горького, 2 (лит.Б, Б1)
"
"Особняк, 1946 г.","92.84879492441","56.006857383464","г. Красноярск, ул. Горького, 7
"
"Усадьба Колесникова, 1906 г.: жилой дом, амбар, ворота
","92.848736270149","56.007168387079","г. Красноярск, ул. Горького, 9
"
"Флигель Королёвой Н.М. (кирпич, дерево), 1904 г.","92.84865815403","56.007559817324","г. Красноярск, ул. Горького, 11 (лит. А1, А2)
"
"Усадьба, 1910-е гг.: дом врача Гланца, в котором с апреля 1920 г. размещалась народная консерватория - первое музыкальное заведение г. Красноярска (дерево), ворота (дерево)
","92.848648455038","56.007591985639","г. Красноярск, ул. Горького, 11 (лит. А)
"
"Усадьба С.В. Телегина (дерево), 1910-е гг.: флигель
","92.848647530729","56.007827972915","г. Красноярск, ул. Горького, 15 (лит. А)
"
"Усадьба С.В. Телегина (дерево), 1910-е гг.: дом жилой
","92.848608230101","56.008085366487","г. Красноярск, ул. Горького, 15 (лит. А)
"
"Усадьба Некрасова Г.П. (дерево), нач. ХХ в.: дом жилой, ворота
","92.848540167501","56.008353451398","г. Красноярск, ул. Горького, 17 (лит. А)
"
"Дом жилой Севастьянова, рек. 1908 г.","92.84836296812","56.009597535553","г. Красноярск, ул. Карла Маркса, 118 (лит. Б, Б1)
"
"Архиерейский дом, 1866-1886 гг., арх. Хейн А.Ф.","92.847828993748","56.011484783155","г. Красноярск, ул. Горького, 27
"
"Римско-католический костёл. Псевдоготика, 1910-1911 гг. Арх. Соколовский","92.847470792042","56.007638802515","г. Красноярск, ул. Декабристов, 20
"
"Дом ксендза, 1910 г.","92.847316692294","56.007874599909","г. Красноярск, ул. Декабристов, 22
"
"Памятник революционеру-большевику Ф.Э. Дзержинскому. Скульптор Ю.П. Ишханов, материал гранит, 1974 г.","92.856243325517","56.011800608395","г. Красноярск, ул. Дзержинского, в районе жилого здания по пр. Мира, 104 (лит. Г)
"
"Флигель усадьбы Калугина, руб. ХIХ-ХХ вв.","92.857540915473","56.007822496056","г. Красноярск, ул. Дзержинского, 6
"
"Дом жилой усадьбы Калугина, 1880 г.","92.857253943185","56.007763166505","г. Красноярск, ул. Дзержинского, 6
"
"Дом, в котором в частной библиотеке красноярского марксиста Н.В. Скорнякова проходили занятия первого марксистского кружка (утрачен)","92.856886116775","56.00885686724","г. Красноярск, ул. Дзержинского, 12"
"Здание полицейского управления, в котором 24 апреля 1897 г. Ленин Владимир Ильич получил официальное уведомление об отправке его в Шушенское и где он встретился со своими соратниками по петербургскому","92.879156750787","56.007856345548","г. Красноярск, ул. Дубровинского, 72
"
"<Краеведческий музей. Египетский стиль>, 1912-1929 гг. Арх. Чернышов","92.872667920788","56.007340282001","г. Красноярск, ул. Дубровинского, 84
"
"Могила Рослякова Петра Дементьевича (1886-1908 гг.), активного участника революции 1905 г. в г. Красноярске, казнённого по приговору царского суда","92.891773561551","56.02510057292","г. Красноярск, за территорией Троицкого кладбища, в сквере южнее здания по ул. Дудинская, 14
"
"<Троицкая церковь>, 1836-1842 гг.","92.88720912692","56.020473260206","г. Красноярск, ул. Игарская, 6 (лит. Б)
"
"Усадьба в стиле русского классицизма, нач. ХIХ в.","92.890709568184","56.01189503961","г. Красноярск, ул. Каратанова, 11"
"<Учительская семинария: жилой корпус>, 1900-е гг.","92.863653753418","56.009052267801","г. Красноярск, ул. Кирова, 11
"
"Дом просвещения для учителей Приенисей-ского края, 1913-1914 гг. арх. Дриженко С.Г.","92.864040256781","56.010758246928","г. Красноярск, ул. Кирова, 24
"
"Жилой особняк Ицына. Стиль Ориенталь, 1910 г. Арх. Чернышов","92.863105484194","56.012484215438","г. Красноярск, ул. Кирова, 25
"
"Здание городской лечебницы, 1887 г.","92.863981549053","56.011117527778","г. Красноярск, ул. Кирова, 26
"
"Здание гостиного двора, 1857-1863 гг.","92.89182059125","56.011740483999","г. Красноярск, ул. Карла Маркса, 6
"
"<Дом жилой Н.А. Фон-Эзерского>, 2-я пол. 19 в.","92.885004950181","56.011385683391","г. Красноярск, ул. Карла Маркса, 24
"
"Дом жилой, нач. ХIХ в.","92.884085984623","56.01134191414","г. Красноярск, ул. Карла Маркса, 26
"
"<Усадьба Поповых: флигель, ворота>, I пол. XIX в.","92.883703045244","56.011336189419","г. Красноярск, ул. Карла Маркса, 28
"
"Дом, в котором в сентябре 1913 года останавливался известный норвежский полярный исследователь Ф. Нансен/Жилой особняк Гадалова. Неоренессанс,
1904 г. Арх. Соколовский
","92.881539577259","56.011259038429","г. Красноярск, ул. Карла Маркса, 36/
ул. Парижской Коммуны, 20
"
"<Усадьба Гадалова: привратницкая>, нач. XX в.","92.881433359005","56.011553921314","г. Красноярск, ул. Карла Маркса, 36/ул. Парижской Коммуны, 20, стр. 1
"
"<Усадьба Гадалова: ограда с воротами>, нач. XX в.","92.881367000501","56.011339322673","г. Красноярск, ул. Карла Маркса, 36/ул. Парижской Коммуны, 20
"
"Здание, где в 1907 - мае 1913 г. работал первый председатель Красноярского Совета рабочих и солдатских депутатов Дубровинский Яков Фёдорович","92.880860031268","56.011194021934","г. Красноярск, ул. Карла Маркса, 38
"
"Дом, где в 1957 г. начал работать институт физики под руководством Киренского Леонида Васильевича","92.8796825312","56.011166059381","г. Красноярск, ул. Карла Маркса, 42
"
"<Здание больницы Общества врачей>, XIX в.","92.883925276063","56.010660614994","г. Красноярск, ул. Карла Маркса, 45, стр. 1
"
"Здание фельдшерско-акушерской школы, где в 1902-1906 годах проходили заседания Красноярского комитета РСДРП, хранилась нелегальная литература","92.883570304545","56.010906994509","г. Красноярск, ул. Карла Маркса, 45
"
"Дом Зельмановича. Неоренессанс, 1910-1911 гг. Арх. Соколовский","92.876122936947","56.010577920411","г. Красноярск, ул. Сурикова, 19
"
"Дом специалистов, 1930 гг.
","92.86529447247","56.010743535849","г. Красноярск, ул. Карла Маркса, 88
"
"Жилой особняк. Провинциальное барокко, нач. ХХ в.","92.862528312633","56.010558122909","г. Красноярск, ул. Карла Маркса, 96а
"
"Дом жилой с магазином, руб. ХIХ-ХХ вв.","92.848353647273","56.009533163615","г. Красноярск, ул. Карла Маркса, 118/
ул. Горького, 23
"
"Усадьба Севастьянова, кон. ХIХ в.: дом каменный с магазином, кладовые
","92.848210109108","56.009516896609","г. Красноярск, ул. Карла Маркса, 118/ул. Горького, 23
"
"Общежитие лесотехнического института, 1930 гг.","92.845874087099","56.009540811136","г. Красноярск, ул. Декабристов, 21/ул. Карла Маркса, 124
"
"Дом жилой, 1950 гг.","92.842763858189","56.009257982899","г. Красноярск, ул. Карла Маркса, 132
"
"Дом, в котором в 1917 году находился первый штаб Красной Гвардии, созданный партийным комитетом большевиков 1 июля 1917 года. Здесь же рабочие- железнодорожники впервые получили оружие","92.834703759759","56.009091888072","г. Красноярск, ул. Карла Маркса, 162
"
"Братская могила бойцов Красной Армии и восставших рабочих города, погибших в боях при освобождении Красноярска в декабре 1919 года - январе 1920 года","92.838534519313","56.008753715367","г. Красноярск, Красная площадь
"
"<Дом жилой>, нач. XX в.","92.838232823201","56.007643101015","г. Красноярск, Красная площадь, 17
"
"Стела <Кандальный путь>. Скульптор Ю.П. Ишханов, архитектор А.С. Демирханов, материал гранит, 1978 г.","92.893138573556","55.993882942051","г. Красноярск, в районе жилого здания по пр. имени газеты <Красно-ярский рабочий>, 172 (лит. Г)
"
"Мозаичное панно <Родина-мать> на фасаде кинотеатра <Родина>, 1960 г.","92.942126685636","56.005731290937","г. Красноярск, пр. им. газеты <Красноярский рабочий>, 100в
"
"Дом Арбекова, нач. ХХ в.","92.871694660376","56.016470404088","г. Красноярск, ул. Ады Лебедевой, 34
"
"Дом, в котором в декабре 1905 г. -  апреле 1906 года находилась подпольная типография Красноярского комитета РСДРП и жила участница Парижской Коммуны Е.А. Давыдовская","92.856680867136","56.015153223105","г. Красноярск, ул. Ады Лебедевой, 93
"
"Бюст В.И. Сурикова. Ск. Л.Ю. Эйдлин, арх. В.Д. Кирхоглани, бронза, гранит, 1954 г.
","92.852035640124","56.013023834339","г. Красноярск, ул. Ленина, сквер им. В.И. Сурикова
"
"Дом жилой с воротами усадьбы Ларионовых, до 1817 г.","92.889630193575","56.014371950618","г. Красноярск, ул. Ленина, 3, стр. 1
"
"Флигель усадьбы Ларионовых, I пол. ХIХ в.","92.889276393394","56.014210731798","г. Красноярск, ул. Ленина, 3а
"
"Благовещенская церковь, 1804-1823 гг.","92.886068902741","56.014207803468","г. Красноярск, ул. 9 Января, 30
"
"Пожарная команда II части, 1904 г.","92.873528309384","56.013546586617","г. Красноярск, ул. Ленина, 59"
"Дом, где в помещении канцелярии тюремного инспектора в марте-апреле 1897 г. Ленин Владимир Ильич неоднократно бывал в связи с ходатайством о назначении ему места ссылки в южной части Енисейской губерн","92.876264723451","56.01413397513","г. Красноярск, ул. Ленина, 58
"
"Почтамт. Модерн, 1908-1911 гг. Арх. Соколовский","92.87443653751","56.013960495751","г. Красноярск, ул. Ленина, 62
"
"Деревянный двухэтажный особняк,
конец ХIХ
","92.872914380997","56.013899936329","г. Красноярск, ул. Ленина, 66
"
"Здание, где в мужской гимназии учились в 1890-1895 гг. революционер Окулов Алексей Иванович, в 1899-1900 гг. первый хакасский учёный Буда Николай Мартемьянович, в 1882-1891 гг. художник Каратанов Дмит","92.87121042108","56.013806987817","г. Красноярск, ул. Ленина, 70/ул. Вейнбаума, 36
"
"Дом, в котором в 1907-1925 гг. жили советские альпинисты-исследователи братья Виталий и Евгений Абалаковы","92.869592748262","56.013681927021","г. Красноярск, ул. Ленина, 74, стр. 1
"
"Дом, в котором с 1856 по 1861 гг. учился В.И. Суриков","92.866827670707","56.013115812841","г. Красноярск, ул. Ленина, 79
"
"Дом, в котором в 1848 г. родился и жил до 1868 г. Суриков Василий Иванович. В доме - музей В.И. Сурикова","92.861829492305","56.01321757107","г. Красноярск, ул. Ленина, 98
"
"Бюст В.И. Сурикова. Скульптор Лавров Г.Д., 1948 г.","92.861628142884","56.0132977954","г. Красноярск, на территории Музея-усадьбы В.И. Сурикова по ул. Ленина, 98
"
"Гостиница <Новая Россия>, 1904 г.","92.858622636986","56.013063755462","г. Красноярск, ул. Ленина, 108
"
"Дом, где в квартире Красикова Петра Ананьевича в марте-апреле 1897 г. Ленин Владимир Ильич бывал для установления связей с местными социал-демократами","92.847748365816","56.012509087016","г. Красноярск, ул. Ленина, 124
"
"Школа. Модерн, 1910-1911 гг. Арх. Соколовский.
Здание, в котором в 1918 году находился штаб Красной Гвардии, руководивший в июне 1918 года Мариинским и Клюквинским фронтами по борьбе с интервентам","92.840598149691","56.012092421392","г. Красноярск, ул. Ленина, 150"
"Деревянный двухэтажный особняк, начало ХХ в.","92.838446027699","56.011601549734","г. Красноярск, ул. Ленина, 167
"
"Ольгинский детский приют, нач. ХХ в.","92.846189820813","56.00477853011","г. Красноярск, ул. Ломоносова, 9"
"Усадьба Чернышова, 1912 г. Арх. Чернышов","92.879185851071","56.015385200622","г. Красноярск, ул. Марковского, 21, стр. 1 (флигель), ул. Марковского, 21 (дом)
"
"Дом, в котором в марте-апреле 1897 г. Ленину Владимиру Ильичу неоднократно предоставляли помещение для теоретических занятий","92.877969874374","56.015373274118","г. Красноярск, ул. Марковского, 27
"
"Дом Дубровина, 1881 г.","92.876036212899","56.015226530702","г. Красноярск, ул. Сурикова, 42"
"Жилой особняк Ускова. Неоренессанс, 1880 г. Арх. Дриженко","92.87255033189","56.015416051296","г. Красноярск, ул. Марковского, 58
"
"Здание, где в помещении библиотеки Юдина в марте-апреле 1897 г. и в сентябре 1898 г. Ленин Владимир Ильич работал над книгой <Развитие капитализма в России>","92.808455805895","55.9960838605","г. Красноярск, ул. Мелькомбинатская, 2г
"
"Комплекс Щёголевского училища,
1890-1904 гг.
","92.889208666597","56.012788038344","г. Красноярск, пр. Мира, 9 (учебный корпус, западный флигель)"
"Комплекс Щёголевского училища,
1890-1904 гг.
","92.888758955118","56.012691091967","г. Красноярск, пр. Мира, 9, стр. 1 (восточный флигель)"
"Жилой дом. Русский классицизм, нач. ХХ в.","92.889312830062","56.013190384487","г. Красноярск, пр. Мира, 14
"
"Дом Тюрепина, I четв. ХIХ в.","92.886957415127","56.013231149794","г. Красноярск, пр. Мира, 22б"
"Контора Кузнецова, II четв. ХIХ в.","92.886134400071","56.013101670116","г. Красноярск, пр. Мира, 24г"
"Дом Данилова, кон. ХIХ в.","92.88329256052","56.012525127268","г. Красноярск, пр. Мира, 25"
"Дом Терских, до 1817 г.","92.881827973526","56.012437915559","г. Красноярск, пр. Мира, 29"
"Здание Енисейского губернского правления, где в марте-апреле 1897 г. Ленин Владимир Ильич неоднократно бывал в связи с определением ему места ссылки","92.881417141169","56.012158625277","г. Красноярск, пр. Мира, 31/
ул. Парижской Коммуны, 22
"
"«Дом с магазинами и кладовыми Н.Г. Гадалова», 1890 гг.","92.880479063012","56.012098720648","г. Красноярск, пр. Мира, 33"
"<Дом С.Я. Кузнецова>, 1826 г., рек. кон. ХIХ в.","92.880191158523","56.012318338692","г. Красноярск, пр. Мира, 35/
ул. Парижской Коммуны, 19"
"«Дом Гудкова», II пол ХI","92.879769997065","56.012285747714","г. Красноярск, пр. Мира, 35"
"«Женская прогимназия», 1870–1875 гг.","92.879061453277","56.012303825172","г. Красноярск, пр. Мира, 37"
"Епархиальное училище. Псевдорусский стиль, 1854 г. Арх. Соколовский","92.877922369852","56.01222761329","г. Красноярск, пр. Мира, 37"
"Торговый дом Раззорёновых, кон. ХIХ в.","92.875970079256","56.011968219488","г. Красноярск, пр. Мира, 43/
ул. Сурикова, 25"
"Дом В.Г. Гадалова, кон. ХIХ в.","92.880571958906","56.013018628132","г. Красноярск, пр. Мира, 44"
"Дом служителей Покровской церкви, до 1828 г.","92.875175052526","56.01208540972","г. Красноярск, пр. Мира, 45, пр. Мира, 47 (комната 2 в пом. 7 на 1-м этаже)"
"Дом полковника Волкова, кон. ХIХ в.","92.874868734445","56.012069008537","г. Красноярск, пр. Мира, 47
"
"Торговый дом Ревильон-братья. Неоклассицизм, 1910-1912 гг. Арх. Соколовский","92.874447562771","56.012041762738","г. Красноярск, пр. Мира, 49
"
"Дом Полякова с магазином, кон. ХIХ в.","92.874016852621","56.012003779003","г. Красноярск, пр. Мира, 51
"
"Дом Полуянова, 1825 г.","92.877624348875","56.012613479668","г. Красноярск, пр. Мира, 54
"
"<Типография Кахановской. Модерн>, 1910 г. Арх. Соколовский","92.872628774816","56.011954079912","г. Красноярск, пр. Мира, 55
"
"Дом Франкфурта, 1911 г.","92.872025894906","56.011867640609","г. Красноярск, пр. Мира, 57
"
"Торговый дом Смирновых, 1849 г.","92.871518632732","56.011818841785","г. Красноярск, пр. Мира, 59/
ул. Вейнбаума, 26
"
"Больничный корпус с флигелем, 1894–1898 гг. рек. 1900 гг.","92.870886766536","56.011812817159","г. Красноярск, ул. Вейнбаума, 15, стр. 6 (больничный корпус)"
"Главный больничный корпус, II пол. ХIХ в.","92.869021946337","56.01118869604","г. Красноярск, ул. Вейнбаума, 15, стр. 4
"
"Больничный корпус с флигелем, 1894-1898 гг. рек. 1900 гг.","92.86934680397","56.011382122579","г. Красноярск, пр. Мира, 63а (флигель)
"
"<Церковь Николая Чудотворца (при городской больнице)>, 1907 г.","92.86947217081","56.011114087194","г. Красноярск, ул. Вейнбаума, 15, стр. 5
"
"Дом нотариуса Ставровского, 1890 г.","92.87467605224","56.01243888478","г. Красноярск, пр. Мира, 66
"
"Здание, в котором размещалось издательство «Приступ», созданное в апреле 1917 года по предложению средне-сибирского бюро ЦК большевиков; в 1917 году вышли из печати: Маркс и Энгельс – «Коммунистически","92.867651232593","56.011669932834","г. Красноярск, пр. Мира, 67"
"Типография и редакция Е.Ф. Кудрявцева, 1888–1890 гг.","92.873833684193","56.012389753778","г. Красноярск, пр. Мира, 70"
"Купеческий клуб. Модерн, 1908 г. Арх. Чернышов","92.866330211264","56.011614871571","г. Красноярск, пр. Мира, 7"
"Дом, в котором в октябре 1905 года Красноярская организация РСДРП и Совет рабочих и солдатских депутатов проводили общегородские митинги","92.865459280784","56.011528108757","г. Красноярск, пр. Мира, 73
"
"Дом Петрова, кон. ХIХ в.","92.873106172606","56.012351462235","г. Красноярск, пр. Мира, 74"
"Аптека общества врачей, кон. ХIХ в.","92.864722069577","56.01153266409","г. Красноярск, пр. Мира, 75"
"Дом Токарева с гостиницей <Грандотель>, 1915 г.","92.872531813063","56.012324051854","г. Красноярск, пр. Мира, 76
"
"Торговый дом Шмандина. Неоренессанс, 1880-1900 гг.","92.862941680522","56.011428790488","г. Красноярск, пр. Мира, 79
"
"Лесотехнический институт, 1930 гг.","92.868903219237","56.012320240224","г. Красноярск, пр. Мира, 82, корпус 1"
"Здание женской гимназии, 1880-1885 гг.","92.861276688349","56.011185573698","г. Красноярск, пр. Мира, 83
"
"Дом жилой, 1936-1940е гг.","92.859610703595","56.011221228472","г. Красноярск, пр. Мира, 85
"
"Торговый дом Семёнова-Романова, 1880 гг.","92.865381100551","56.011983909557","г. Красноярск, пр. Мира, 86"
"Торговый дом Гадалова. Модерн. 1912-1913 гг. Арх. Соколовский","92.863945183467","56.011928697044","г. Красноярск, пр. Мира, 90
"
"Дом Н.А. Кузнецовой с магазином, 1890 г.","92.858213020061","56.011192809648","г. Красноярск, пр. Мира, 87
"
"Административное здание, 1950 гг.","92.854834482059","56.010915340022","г. Красноярск, пр. Мира, 93/ул. Карла Маркса, 114
"
"Торговый дом Лидмана. Модерн, 1909-1910 гг.","92.861542641345","56.011775843683","г. Красноярск, пр. Мира, 96
"
"Управление Красноярской железной дороги, 1950 гг.","92.849850445455","56.009906411726","г. Красноярск, ул. Горького, 6
"
"Здание Духовного братства, 1912-1916 гг., арх. Чернышов Л.А.","92.860365312361","56.011699426611","г. Красноярск, пр. Мира, 98
"
"Дом жилой, 1936-1938 гг.","92.845061299101","56.010495811872","г. Красноярск, пр. Мира, 105
"
"Дом жилой, 1930 гг.","92.843424528671","56.010413290626","г. Красноярск, пр. Мира, 107
"
"Центр научно-технической информации. Дом жилой, 1950 гг.","92.854229391767","56.01142950847","г. Красноярск, пр. Мира, 108/
ул. Обороны, 2б
"
"Дом жилой с магазином, 1930 гг.","92.841940987089","56.010320217718","г. Красноярск, пр. Мира, 109"
"Дом Советов, 1950 гг., проект 1936 г.","92.852304874219","56.011470121546","г. Красноярск, пр. Мира, 110
"
"Управление гражданской авиации. Дом жилой, 1950 гг.","92.850638205697","56.011677282151","г. Красноярск, пр. Мира, 112, ул. Ленина, 127"
"Памятник В.И. Ленину. Скульптор С.Д. Меркуров, 1928 г.","92.962002892575","56.011719215387","г. Красноярск, Ленинский район, пр. имени газеты <Красноярский рабочий>, между домами № 74а и № 72а
"
"Жилой особняк Савиных. Модерн, начало ХХ в. Арх. Соколовский","92.880854594895","56.011404528832","г. Красноярск, ул. Парижской Коммуны, 13"
"Общественное собрание. Неоампир. Арх. Соколовский
","92.866534748271","56.010606780259","г. Красноярск, ул. Перенсона, 20"
"<Железнодорожный вокзал>, 1950 гг.","92.829898540309","56.005690327173","г. Красноярск, ул. 30 Июля, 1
"
"Паровоз серии СО-17-1600, выпущенный в годы Великой Отечественной войны в г. Красноярске эвакуированным из г. Бежицы заводом <Красный профинтерн>","92.830410653137","56.006785162314","г. Красноярск, Привокзальная площадь
"
"<Первое Сибирское техническое железнодорожное училище им. Императора Николая II - Красноярская школа военных техников (ШВТ) железнодорожного транспорта>, 1897, 1934-1943 гг.
","92.835220879722","56.005686838322","г. Красноярск, Профсоюзов, 3"
"Дом, в котором в 1905 г. проходили заседания Совета рабочих и солдатских депутатов. В 1917-1918 годах здесь находился Красноярский районный комитет партии большевиков (утрачен)","92.836148067403","56.012778454703","г. Красноярск, ул. Профсоюзов, 35
"
"Здание сборочного цеха железнодорожных мастерских, где в январе 1905 г. часто проходили митинги, собрания рабочих и 6 декабря 1905 г. был создан Красноярский Совет рабочих и солдатских депутатов. Здес","92.835818031595","56.013839962223","г. Красноярск, ул. Профсоюзов, 39"
"Памятник В.И. Ленину. (1970 г., скульптор Пинчук В.И., архитектор Лапиров А.Г.)","92.852511172968","56.010096005318","г. Красноярск, площадь Революции
"
"Дом жилой, 1930 гг.","92.841962464999","56.009750387055","г. Красноярск, ул. Робеспьера, 20
"
"Быв. городская библиотека, которую посещал Ленин Владимир Ильич в 1897 г.","92.876019434589","56.011505678804","г. Красноярск, ул. Сурикова, 23, пом. 1, пом. 5
"
"Церковь Покрова, XVIII в.","92.876541765596","56.012830955525","г. Красноярск, ул. Сурикова, 26
"
"Историко-мемориальный садовый комплекс В.И. Крутовского (территория мемориального сада площадью 7 га, дом и могила В.И. Крутовского)","92.748135334916","55.971047503832","г. Красноярск , ул. Сад Крутовского, 1 (лит. Б) (дом)
"
"Учительская семинария. Модерн, 1900–1903 гг. Арх. Фольбаум","92.862537870702","56.00921729111","г. Красноярск, ул. Урицкого, 106"
"Дом с каменным флигелем Г.В. Юдина, кон. ХIХ в., рек. 1910 г.","92.862426084528","56.008348300135","г. Красноярск, ул. Урицкого, 121, стр. 1 (флигель)
"
"Дом с каменным флигелем Г.В. Юдина, кон. ХIХ в., рек. 1910 г.","92.862482874281","56.008530718217","г. Красноярск, ул. Урицкого, 123"
"Памятное место, связанное с историей и культурой города","92.852796203515","56.008154806028","г. Красноярск, Набережная р. Енисей, пл. Революции, городской парк им. Горького
"
"Пароход <Св. Николай>, на котором 30 апреля 1897 г. Ленин Владимир Ильич отбыл из Красноярска в Минусинск, направляясь в ссылку в Шушенское","92.894911605091","56.010493499047","г. Красноярск, пл. Мира, 1г
"
"Речной вокзал, 1950-е гг.","92.881650376106","56.007907039636","г. Красноярск, ул. Дубровинского, 1
"
"Караульная башня - часовня Параскевы Пятницы, 1855 г.","92.859757614086","56.023496794344","г. Красноярск, ул. Степана Разина, 51а
"
"Стадион им. Ленинского комсомола, 1967 г.","92.884588868495","55.998443475869","г. Красноярск, остров Отдыха, 15а"
"Дом, где в 1917-1919 гг. размещался оружейный арсенал и получали оружие рабочие-красногвардейцы","92.836755374572","56.005002370284","г. Красноярск, ул. Профсоюзов, 3, стр. 57
"
"Место формирования в 1939, 1941 гг. 119/17 Гвардейской дивизии, в первые годы войны отправившейся на фронт. Установлена стела","92.962042692037","56.058631042594","г. Красноярск, Зеленая Роща, Гвардейский парк
"
"Железнодорожный мост, кон. ХIХ в.","92.812690653186","55.98915685291","г. Красноярск, Железнодорожный район
"
"Коммунальный мост, 1961 г.","92.874960650306","56.001421468409","г. Красноярск, ул. Вейнбаума - остров отдыха - ул. Матросова
"
"Красноярский Успенский мужской монастырь. Келейный корпус","92.740305931212","55.979081727239","г. Красноярск, ул. Лесная, 55а"
"Братская могила солдат 3-го и 31-го стрелковых полков, расстрелянных в июле 1919 года за участие в вооруженном восстании против колчаковского режима","92.945033744286","56.04805884585","г. Красноярск, сквер в районе жилого здания по пр. Металлургов, 32б
"
"Братская могила рабочих П.А. Турко, И.В. Смолько, А.И. Ковалёва, погибших 3 июня 1918 г. в борьбе с белочехами и белогвардейцами","92.788426444918","56.013398937539","г. Красноярск, Николаевское кладбище
"
"Могила члена РКП(б), командира партизанского батальона армии Кравченко и Щетинкина, участника разгрома кронштадтского белогвардейского мятежа, неутомимого борца с врагами Советской власти Василия Алек","92.78900160865","56.01327120307","г. Красноярск, Николаевское кладбище
"
"Братская могила членов военной подпольной организации, активных участников установления Советской власти в Красноярске, казненных колчаковцами 1 октября 1919 года, т. Черкашина, Т.Т. Будникова, Л.Ф. Г","92.788505035162","56.013034363003","г. Красноярск, Николаевское кладбище
"
"Могила Якова Васильевича Фомина, одного из первых комсомольцев города, командира ЧОН, активного деятеля за проведение в жизнь ленинских декретов о земле, зверски убитого бандой кулаков 6 августа 1923","92.78789157615","56.013162029227","г. Красноярск, Николаевское кладбище
"
"Братское кладбище воинов Советской Армии, участников Великой Отечественной войны, умерших от ранения в госпиталях г. Красноярска в 1941-1945 гг.","92.886233650329","56.021659005201","г. Красноярск, Троицкое кладбище
"
"Могила Давыдова Василия Львовича (1792-1855)","92.886558934083","56.021766572662","г. Красноярск, Троицкое кладбище
"
"Могила Дубровинского Иосифа Федоровича (1877-1913)","92.887037317981","56.021917186765","г. Красноярск, Троицкое кладбище
"
"Могила Спандаряна Сурена Спандаровича (1882-1916)","92.886903875535","56.021702529888","г. Красноярск, Троицкое кладбище
"
"Могила Каратанова Дмитрия Иннокентьевича (1874-1952 гг.), художника","92.887325114207","56.021745823191","г. Красноярск, Троицкое кладбище, сектор 6
"
"Могила Риоли-Словцовой Маргариты Николаевны (1889-1954 гг.), оперной певицы","92.887496802668","56.021981968012","г. Красноярск, Троицкое кладбище, сектор 1
"
"Могила Словцова Петра Ивановича (1886-1934 гг.), оперного певца","92.887822903244","56.021810638295","г. Красноярск, Троицкое кладбище, сектор 1
"
"Могила Соколовского Владимира Александровича (1874-1956 гг.), архитектора","92.887879832386","56.021993044333","г. Красноярск, Троицкое кладбище, сектор 4
"
"Могила Суриковой Прасковьи Фёдоровны (умерла в 1895 г.), матери художника Сурикова В.И.","92.888244113064","56.021864655146","г. Красноярск, Троицкое кладбище, сектор 3
"
"Могила Сурикова Александра Ивановича (1856-1930 гг.), брата художника Сурикова В.И.","92.88835853452","56.022036386449","г. Красноярск, Троицкое кладбище, сектор 3
"
"Могила Устиновича Николая Станиславовича (1911-1962 гг.), писателя","92.88862707993","56.021897182519","г. Красноярск, Троицкое кладбище, сектор 6
"
"Братская могила военных летчиков - участников Великой Отечественной войны, похороненных госпиталями г. Красноярска в 1941-1945 гг.","92.886213200908","56.022098781614","г. Красноярск, Троицкое кладбище, сектор 10
"
"Братская могила членов исполнительного комитета Красноярского Совета рабочих и солдатских депутатов Т.П. Марковского, С.В. Печерского, А.П. Лебедевой, зверски казненных интервентами 27 июля 1918 года","92.888932972327","56.022090539874","г. Красноярск, Троицкое кладбище, сектор 11
"
"Братская могила членов исполкома Красноярского Совета партийной организации, видных и активных революционеров-большевиков, деятелей профсоюзного движения в г. Красноярске, расстрелянных колчаковцами в","92.89227573696","56.025327615319","г. Красноярск, сквер рядом со зданием по ул. Дудинская, 14, за оградой Троицкого кладбища
"
"Могила Микуцкого Бориса Антоновича (1914-1974), Героя Советского Союза","92.88912493475","56.021940538996","г. Красноярск, Троицкое кладбище, сектор 9
"
"Могила Гладкова Анатолия Ивановича (1907-1928 гг.), секретаря райкома ВЛКСМ","92.88937352435","56.022080210036","г. Красноярск, Троицкое кладбище, сектор 5
"
"Могила Дриженко Сергея Георгиевича (1878-1946 гг.), архитектора","92.889555095039","56.022214457076","г. Красноярск, Троицкое кладбище, сектор 4
"
"Могила Дриженко Фёдора Кирилловича (1858-1922 гг.), учёного гидрографа","92.88966094344","56.022037561255","г. Красноярск, Троицкое кладбище, сектор 4
"
"Предполагаемое место захоронения Митькова Михаила Фотиевича (1791-1849 гг.), декабриста","92.890091536284","56.022161303851","г. Красноярск, Троицкое кладбище, сектор 1
"
"Могила Сайлотова Тимофея Алексеевича (1845-1918 гг.), просветителя","92.890178274821","56.021968300444","г. Красноярск, Троицкое кладбище, сектор 1
"
"Могила Юдина Геннадия Васильевича (1840-1912 гг.), библиофила, издателя","92.890407806687","56.022075772243","г. Красноярск, Троицкое кладбище, сектор 1
"
"Могила Асеева Алексея Александровича (1922-1980), Героя Советского Союза","92.923777743963","56.087238583639","г. Красноярск, Кладбище <Бадалык>
"
"Могила Бобкова Григория Евдокимовича (1907-1981), Героя Советского Союза","92.922625150514","56.087967272587","г. Красноярск, Кладбище <Бадалык>
"
"Могила Бахарева Петра Михайловича (1920-1986), Героя Советского Союза","92.924543393025","56.088140089696","г. Красноярск, Кладбище <Бадалык>
"
"Могила Борисевича Ивана Андреевича (1917-1981), Героя Советского Союза","92.92623265599","56.087669144198","г. Красноярск, Кладбище <Бадалык>
"
"Могила Вильского Вениамина Владимировича (1925-1980), Героя Советского Союза","92.926000033387","56.08891328939","г. Красноярск, Кладбище <Бадалык>
"
"Могила Демьянова Ивана Никитовича (1923-1989), полного кавалера ордена Славы","92.927766379058","56.088270743813","г. Красноярск, Кладбище <Бадалык>
"
"Могила Ждакаева Григория Тимофеевича (1922-1977), полного кавалера ордена Славы","92.924387965362","56.089126840879","г. Красноярск, Кладбище <Бадалык>
"
"Могила Михайлова Владимира Степановича (1920-1991), Героя Советского Союза","92.927841270492","56.08925763435","г. Красноярск, Кладбище <Бадалык>
"
"Могила Тимошенко Анатолия Васильевича (1914-1991), Героя Советского Союза","92.926612273844","56.089814689957","г. Красноярск, Кладбище <Бадалык>
"
"Могила Чернышёва Бориса Константиновича (1924-1984), Героя Советского Союза","92.92484650927","56.090113968343","г. Красноярск, Кладбище <Бадалык>
"
"Могила Чудбина Леонида Сергеевича (1922-1983), Героя Советского Союза","92.9228533141","56.08899716892","г. Красноярск, Кладбище <Бадалык>
"
"Могила Юферова Григория Прокопьевича (1912-1979), полного кавалера ордена Славы","92.925919898652","56.090672402172","г. Красноярск, Кладбище <Бадалык>
"
"Могила Янковского Степана Григорьевича (1922-1994), Героя Советского Союза","92.923004914396","56.089941204028","г. Красноярск, Кладбище <Бадалык>
"
"Могила Ячменёва Григория Егоровича (1915-1991), Героя Советского Союза","92.923617186413","56.090799712971","г. Красноярск, Кладбище <Бадалык>
"
"Братская могила партизан, расстрелянных колчаковцами в 1919 г.","93.12598989874","57.056005134723","Большемуртинский район, д. Большой Кантат, ул. Центральная, сооружение 5Б
"
"Дом, в котором в 1920-1942 гг. и в 1946-1972 гг. жил Герой Советского Союза Черняк Афанасий Григорьевич","93.678879846629","55.807943462515","Манский район, п. Камарчага, ул. Черняка, 33
"
"Могила Черняка Афанасия Григорьевича, Героя Советского Союза","93.705735669558","55.800438734912","Манский район, п. Камарчага, кладбище
"
"Дом, в котором в 1930-1941 гг. жил Герой Советского Союза Круглов Василий Иванович","93.647623857956","55.400744069004","Манский район, с. Нарва
"
"Могила партизана Гусева Ивана Осиповича, расстрелянного колчаковцами в июне 1919 г.","93.648076617323","55.400763128047","Манский район, с. Нарва, на усадьбе Б.Г. Евдокимова
"
"Могила партизана Хруцкого Михаила Прокопьевича и его отца Хруцкого Прокопия Михайловича, погибшего от рук колчаковцев в июле 1919 г.","93.746219803866","55.211311001352","Манский район, с. Степной Баджей, кладбище"
"Братская могила партизана Якименка Гавриила Никоновича и жителей села Игнатюка Емельяна Фёдоровича, Совпеля Федосея Осиповича, расстрелянных колчаковцами в апреле 1919 г.","93.853369314655","55.581419381742","Манский район, д. Сугристое
"
"<Церковь Рождественская>, 1912 г.","93.852274248511","55.576765718023","Манский район, д. Сугристое, ул. Зелёная, 2а
"
"Братская могила мирных жителей Фёдорова Степана и Кизерова Фёдора, зарубленных колчаковцами в мае 1919 г.","93.7446952263","55.880943186078","Манский район, с. Тертеж"
"Братская могила 11 партизан, погибших в бою с белогвардейцами в июле 1919 г.","93.726911920223","55.719526766031","Манский район, с. Шалинское
"
"<Флигель жилой городской усадьбы А.М. Толмачёва>, посл. четв. XIX в.","91.700418205972","53.706946051836","г. Минусинск, ул. Ачинская, 18а
"
"<Магазин>, кон. ХIХ в.","91.703349132784","53.700452974299","г. Минусинск, ул. Набережная, 84
"
"Дом большевика Р.С. Герасименко, в котором в 1918-1919 годах находилась явочная квартира минусинских подпольщиков","91.705605566435","53.699999825493","г. Минусинск, ул. Герасименко, 15
"
"Здание, где с августа 1917 года размещался рабочий клуб и в 1918 году уездный комитет РСДРП(б)","91.693617690831","53.709850101118","г. Минусинск, ул. Гоголя, 63
"
"Дом жилой с воротами, кон. ХIХ в.","91.694015445045","53.709564684267","г. Минусинск, ул. Гоголя, 65
"
"<Дом жилой с магазином>, кон. ХIХ в.","91.694197296891","53.708949596882","г. Минусинск, ул. Гоголя, 66
"
"<Административное здание>, кон. ХIХ в.","91.695607490816","53.708095699506","г. Минусинск, ул. Гоголя, 68
"
"«Дом жилой с флигелем и воротами», посл. четв. ХIХ в.","91.695800173644","53.708006578801","г. Минусинск, ул. Гоголя, 68"
"<Дом жилой П.К. Лукьянова>,
посл. четв. XIX в.
","91.68451268017","53.709181663889","г. Минусинск, ул. Комсомольская, 6
"
"Дом, в котором с 23 сентября 1919 года по 18 февраля 1920 года размещалась редакция и типография газеты <Соха и Молот> - орган армейского Совета партизанской армии Кравченко-Щетинкина","91.685733614138","53.710053601155","г. Минусинск, ул. Комсомольская, 9
"
"Ансамбль, 1801-1813 гг.: Спасская церковь, 1853, 1904 гг.; сторожка; ограда с воротами, 2 пол. ХIХ в.

","91.686388608361","53.70993200683","г. Минусинск, ул. Комсомольская, 10
"
"Дом жилой, посл. четв. ХIХ в.","91.688282714986","53.710972273884","г. Минусинск, ул. Комсомольская, 12
"
"Флигель с воротами, посл. четв. ХIХ в.","91.688478126166","53.711087096275","г. Минусинск, ул. Комсомольская, 14
"
"Административное здание, II пол. ХIХ в.","91.686569135248","53.710524228182","г. Минусинск, ул. Комсомольская, 15
"
"Дом, в котором с 1839 г. по 1844 г. жил декабрист Н.О. Мозгалевский, находясь на поселении","91.693650380174","53.713756778951","г. Минусинск, ул. Комсомольская, 38
"
"Дом, в котором в 1921-1922 гг. жил Ян (Янчевецкий) Василий Григорьевич, писатель","91.694003759865","53.714028923843","г. Минусинск, ул. Комсомольская, 42
"
"Церковь Вознесения, 1914 г.","91.70389510833","53.705636907492","г. Минусинск, ул. Корнева, 15б
"
"Здание, где в сентябре 1919 - в феврале 1920 г. размещалась типография органа партизанской армии Кравченко-Щетинкина - газеты <Соха и Молот>","91.695189734492","53.709904798609","г. Минусинск, ул. Кравченко, 10
"
"<Магазин>, кон. ХIХ в.","91.693707807306","53.709276940451","г. Минусинск, ул. Кравченко, 13
"
"Здание, где в июле 1918 - сентябре 1919 г. находилась подпольная явка минусинских большевиков","91.697005093933","53.711158701711","г. Минусинск, ул. Кравченко, 20а
"
"Здание, где в 1918 г. была подпольная явка большевиков и хранились оружие, медикаменты и боеприпасы для восставших","91.698093698664","53.711932486638","г. Минусинск, ул. Кравченко, 26
"
"Могила Сургуладзе Сергея Константиновича (1879-1923 гг.), революционера, партийно-советского деятеля","91.695506370012","53.708733131639","г. Минусинск, пл. им. В.И. Ленина
"
"<Дом жилой>, посл. четв. ХIХ в.","91.685659756833","53.70952157323","г. Минусинск, ул. Красных Партизан, 2
"
"<Административное здание>, кон. ХIХ в.","91.68905952505","53.708678837591","г. Минусинск, ул. Красных Партизан, 3
"
"<Общественное здание>,
II пол. XIX в.
","91.691138677715","53.707837678554","г. Минусинск, ул. Красных Партизан, 11
"
"<Дом жилой>, посл. четв. ХIХ в.","91.688654644904","53.70832026031","г. Минусинск, ул. Красных Партизан, 14
"
"Общественное здание, руб. ХIХ-ХХ вв.","91.690153379187","53.707821540915","г. Минусинск, ул. Красных Партизан, 20
"
"<Дом жилой Т.И. Ленивцевой>,
нач. XX в.
","91.693538266298","53.706576079033","г. Минусинск, ул. Красных Партизан, 34
"
"Здание музея и общественной библиотеки, в котором в 1897-1900 гг. Ленин Владимир Ильич неоднократно бывал и брал книги для работы","91.688685793044","53.709935716601","г. Минусинск, ул. Ленина, 60
"
"Комплекс музея им. Мартьянова Н.М. Второй корпус","91.688795124177","53.709910084427","г. Минусинск, ул. Ленина, 60, пом. 2
"
"Дом жилой, посл. четв. ХIХ в.","91.687486049694","53.710995741231","г. Минусинск, ул. Ленина, 71
"
"<Здание Казначейства>, сер. ХIХ в.","91.687829773544","53.710704386772","г. Минусинск, ул. Ленина, 73
"
"<Дом Беловой>, сер. ХIХ в.","91.688631772947","53.710509269006","г. Минусинск, ул. Ленина, 75
"
"<Дом жилой>, посл. четв. ХIХ в.","91.689847467382","53.710098672965","г. Минусинск, ул. Ленина, 77
"
"Здание, где в 1922 году размещалась редакция газеты <Власть труда> и жил и работал писатель Ян (Янчевецкий) Василий Григорьевич","91.691511058775","53.708952474367","г. Минусинск, ул. Ленина, 78
"
"<Магазин>, кон. ХIХ в.","91.693141512672","53.708288815977","г. Минусинск, ул. Ленина, 88
"
"<Дом жилой купца И. Егорычева>, нач. XX в.
","91.694375347683","53.70787300649","г. Минусинск, ул. Ленина, 92
"
"Дом жилой, кон. ХIХ в.","91.693091214009","53.7087443626","г. Минусинск, ул. Ленина, 97
"
"Дом жилой, кон. ХIХ в.","91.695746345469","53.707700140435","г. Минусинск, ул. Ленина, 107
"
"<Дом жилой Ф.И. Лалетина>,
кон. XIX в.
","91.687956787544","53.708076520728","г. Минусинск, ул. Мартьянова, 2
"
"Дом, в котором жил и умер в 1904 г. основатель минусинского краеведческого музея Мартьянов Николай Михайлович","91.691312046059","53.711284435511","г. Минусинск, ул. Мартьянова, 14
"
"<Дом жилой с магазином>,
посл. четв. XIX в.
","91.690611563055","53.71650980149","г. Минусинск, ул. Мира, 18
"
"Здание, где в июле 1918 - сентябре 1919 г. была явочная квартира минусинского комитета большевиков","91.698129968437","53.712368853981","г. Минусинск, ул. Мира, 55
"
"Дом, в котором в 1897-1903 гг. жил российский и международный революционный деятель Кон Феликс Яковлевич","91.700006127553","53.71136436021","г. Минусинск, ул. Мира, 65
"
"<Корпуса винной монополии>, кон. ХIХ в.","91.706467192004","53.707726532529","г. Минусинск, ул. Мира, 95
"
"<Дом жилой П.М. Жирокова>,
кон. XIX - нач. XX вв.
","91.683239013305","53.708407060548","г. Минусинск, ул. Набережная, 38
"
"<Дом жилой>, кон. ХIХ в.","91.676922087416","53.708825735026","г. Минусинск, ул. Набережная, 26
"
"<Комплекс пожарного депо:
корпус театра>, рубеж ХIХ-ХХ вв.

","91.683524625317","53.709687268994","г. Минусинск, ул. Подсинская, 75
"
"<Комплекс пожарного депо: корпус пожарного депо>, рубеж ХIХ-ХХ вв.

","91.684036296967","53.710100695443","г. Минусинск, ул. Обороны, 2
"
"Дом, в котором с декабря 1917 года по февраль 1918 года размещался объединенный Совет рабочих, солдатских и крестьянских депутатов","91.688006200206","53.712446189812","г. Минусинск, ул. Обороны, 18
"
"Дом, в который в 1897-1898 гг. на адрес Фридман С.М. приходили посылки для В.И. Ленина","91.687298422962","53.712518922157","г. Минусинск, ул. Обороны, 41
"
"Дом, в котором с декабря 1917 года по июнь 1918 г. размещалась редакция газеты <Известия> - орган Минусинского Совета рабочих, солдатских и крестьянских депутатов","91.687600004168","53.712710031102","г. Минусинск
ул. Обороны, 43а
"
"Дом декабристов братьев Н.А. и А.А. Крюковых, живших на поселении с 1837 по 1856 гг.","91.691279109879","53.714821496668","г. Минусинск, ул. Обороны, 59а
"
"Дом Мартьянова Николая Михайловича, основателя краеведческого музея, в котором в период ссылки в 1897-1900 гг.бывал Ленин Владимир Ильич","91.692696031704","53.712009180283","г. Минусинск, ул. Октябрьская, 48
"
"Дом усадьбы Пашенных, посл. четв. ХIХ в.","91.693065356808","53.711766382857","г. Минусинск, ул. Октябрьская, 52
"
"Дом жилой с флигелем и воротами усадьбы Пашенных, посл. четв. ХIХ в.","91.69507160279","53.71036094829","г. Минусинск, ул. Октябрьская, 62
"
"Дом, в котором с 25 по 29 сентября 1919 года проходил I-ый чрезвычайный съезд рабочих, крестьянских и солдатских депутатов, избравший объединённый уездный Совет. Здесь же находился с 13 сентября 1919","91.697272748514","53.709961009962","г. Минусинск, ул. Октябрьская, 65
"
"<Дом жилой с магазином>, посл. четв. ХIХ в.","91.697555758606","53.709583114323","г. Минусинск, ул. Октябрьская, 67
"
"Дом, в котором в квартире политссыльного А.В. Орочко бывал В.И. Ленин, проезжая из с. Шушенского, а 29 и 30 января 1900 года останавливался с Н.К. Крупской, возвращаясь из ссылки/ Дом, где в 1900 г. о","91.697667403515","53.709482377686","г. Минусинск, ул. Октябрьская, 69
"
"Дом жилой с магазином, кон. ХIХ в.","91.698405285528","53.709018206313","г. Минусинск, ул. Штабная, 18
"
"Дом, где в квартире политссыльных Г.М. Кржижановского и В.В. Старкова во время ссылки Ленин Владимир Ильич неоднократно бывал","91.698819260858","53.708791974035","г. Минусинск, ул. Октябрьская, 73
"
"Дом жилой, кон. ХIХ в.","91.699683197207","53.708345261753","г. Минусинск, ул. Октябрьская, 79а
"
"<Дом жилой Вильнера>, кон. ХIХ в.","91.70209672211","53.706917302745","г. Минусинск, ул. Октябрьская, 93
"
"Усадьба, рубеж ХIХ-ХХ вв.: дом жилой; ворота
","91.681787515515","53.70970572332","г. Минусинск, ул. Подсинская, 71
"
"Дом, в котором с июня 1918 года по август 1919 года, в период колчаковщины, проходили нелегальные собрания Минусинской большевистской организации","91.682791792988","53.709115798953","г. Минусинск, ул. Подсинская, 88
"
"Дом, в котором с 13 сентября 1919 года по 30 января 1920 года находился главный штаб партизанской армии Кравченко и Щетинкина","91.698142661839","53.708736329007","г. Минусинск, ул. Октябрьская, 66
"
"Здание, где в марте-августе 1917 г. размещались первый рабочий клуб Минусинска и в апреле 1917 - мае 1918 г. редакция органа минусинского комитета большевиков - газеты <Товарищ>","91.699217550041","53.70966019821","г. Минусинск, ул. Штабная, 22
"
"Памятник погибшим минусинцам - участникам Великой Отечественной войны 1941-1945 гг. Автор П.О. Ятманов, материал - искусственный камень, 1965 г.","91.684677576008","53.69911313803","г. Минусинск, площадь Победы
"
"Могила Кравченко Александра Диомидовича (1880-1923 гг), главнокомандующего партизанской армией","91.6957853175","53.708925314971","г. Минусинск, площадь им. В.И. Ленина
"
"Скульптура П.Е. Щетинкина. Скульптор Г.Д. Лавров. Материал - искусственный камень, 1951 г.","91.694562167554","53.709287597187","г. Минусинск, сквер им. П.Е. Щетинкина
"
"<Бюст дважды Героя Советского Союза С.И. Кретова>, ск. С.Л. Лебедев, арх. Л.В. Руднев, бронза, гранит, 1951 г.
","91.688059236711","53.710160927208","г. Минусинск, пл. III Интернационала
"
"Бюст Н.М. Мартьянова. Скульптор Г.Д. Лавров. Материал - искусственный камень, 1950 г.","91.688839439237","53.709793862749","г. Минусинск, ул. Ленина, 60, территория Минусинского регионального краеведческого музея им. Н.М. Мартьянова
"
"Могила Чеботаева Петра Ефимовича (1923-1984), полного кавалера ордена Славы","91.695160983467","53.738441227737","г. Минусинск, ул. Городокская, 40, кладбище <Северное-2>, сектор № 57
"
"Церковь Сретенья, 1897 г.","91.704489916043","53.716446079608","г. Минусинск, ул. Кравченко, 69, кладбище <Старое>
"
"Могила Богана Фёдора (погиб в 1919 г.), командира полка партизанской армии Кравченко-Щетинкина","91.705077537347","53.716457799633","г. Минусинск, ул. Кравченко, 69, кладбище <Старое>
"
"Братская могила Исакова Ефима Александровича, командира 1-го батальона Манского полка партизанской армии Кравченко-Щетинкина и Белянина Ильи Андреевича, партизана","91.705594134043","53.716425822739","г. Минусинск, ул. Кравченко, 69, кладбище <Старое>
"
"Могила первого комсомольца города, командира отряда Красной Гвардии И. Колеватова, расстрелянного колчаковцами в 1919 году","91.706028850196","53.716409056532","г. Минусинск, ул. Кравченко, 69, кладбище <Старое>
"
"Братская могила партийно-советских работников, участников борьбы с эсеро-кулацким и белогвардейским мятежом, участников ноябрьских событий 1918 года","91.70629208107","53.716379705056","г. Минусинск, ул. Кравченко, 69, кладбище <Старое>
"
"Могила Мартьянова Николая Михайловича - основателя Минусинского музея, много сделавшего для развития музейного дела в Сибири","91.706888251226","53.716407605975","г. Минусинск, ул. Кравченко, 69, кладбище <Старое>
"
"Могила Шаповалова Терентия Александровича, члена исполкома Минусинского Совета рабочих, крестьянских и солдатских депутатов, замученного колчаковцами в 1918 г.","92.129498394604","53.769083262116","Минусинский район, с. Большая Иня, кладбище"
"Братская могила участников Минусинского восстания, замученных белогвардейцами в ноябре 1918 г., и партизан, погибших в боях с колчаковцами в сентябре 1919 г.","91.819674155802","53.929831972608","Минусинский район, с. Городок, в центре сельского кладбища
"
"Комплекс спиртозавода Данилова, кон. ХIХ - нач. ХХ вв.: здание конторы (дерево); производственный корпус (каменный)
","91.908312168332","53.536620354149","Минусинский район, с. Знаменка,ул. Ленина, 61"
"Братская могила участников Минусинского восстания, расстрелянных колчаковцами в ноябре 1918 г.","91.925814611311","53.966165563696","Минусинский район, с. Кавказское, в сквере в центре села
"
"Дом жилой (дерево), кон. ХIХ в.","92.215777051989","53.80335809479","Минусинский район, д. Малая Иня, ул. Чапаева
"
"Церковь Спасская, 1906-1911 гг.","91.774850375485","53.725712624896","Минусинский район, с. Малая Минуса, ул. Шоссейная, 1а
"
"Дом, в котором с 29 октября по 4 ноября 1897 г. останавливался В.И. Ленин, приезжавший для встречи с политическими ссыльными (утрачен)","92.18275892941","53.867034871977","Минусинский район, с. Тесь"
"Дом жилой, руб. ХIХ–ХХ вв.","92.181920274873","53.869538838291","Минусинский район, с. Тесь, ул. Мира, угол Набережной"
"Усадьба Рогозинского (дерево), 2 пол. ХIХ в.","92.443637711605","53.818468115627","Минусинский район, с. Шошино, ул. Калинина, 53"
"Школа (дерево), 1908 г.","92.438640813897","53.818530670044","Минусинский район
с. Шошино
ул. Хвастанцева
"
"Братская могила участников подавления кулацкого Сережского мятежа в 1920 г.","90.541430633417","55.885665957797","Назаровский район, с. Ильинка
"
"Братская могила участников подавления Сережского мятежа","90.498239557832","55.685565773196","Назаровский район, д. Медведск
"
"Могила Донских Александра Ивановича (1918–1983), Героя Советского Союза","90.440008993617","56.022389998808","Назаровский район, г. Назарово, городское кладбище"
"Братская могила семи советско-партийных работников, погибших при ликвидации сережского контрреволюционного вооружённого мятежа в 1920 году","90.42163388773","56.016502145243","Назаровский район, г. Назарово, 8-ой микрорайон, сооружение 2В
"
"Церковь Богоявления, 1912 г., 1906 г.","91.009190814067","55.835223147655","Назаровский район, с. Подсосное, ул. Школьная, 5а
"
"Братская могила жителей села, погибших в борьбе с кулачеством в 1920-1922 гг.","91.007217729326","55.835405779484","Назаровский район, с. Подсосное
"
"Братская могила партизан, расстрелянных колчаковцами в1918 г.","96.425607186201","56.210359653105","Нижнеингашский район, с. Верхний Ингаш"
"Братская могила коммунистов Бабушкина Андрея Ильича и Зябкова Гавриила, убитых белобандитами в 1921 г.","96.511897729731","56.187671268993","Нижнеингашский район, р. п. Нижний Ингаш
"
"Братская могила борцов за власть Советов, погибших в <Эшелоне смерти> в 1919 г.","96.512776216804","56.187173988402","Нижнеингашский район, р. п. Нижний Ингаш
"
"Памятник первым механизаторам - трактор <СТЗ-ХТЗ>, выпущенный в 1930 г.","96.515915606718","56.190347836657","Нижнеингашский район, р. п. Нижний Ингаш
"
"Братская могила борцов за Советскую власть, погибших в <Эшелоне смерти> в 1918 г.","97.367768627872","56.122332532854","Нижнеингашский район, п. Ключи
"
"Братская могила партизан, расстрелянных колчаковцами в 1919 г.","96.960116916472","56.307754079655","Нижнеингашский район, с. Кучерово
"
"Памятник литовцам, погибшим в июле 1941-1956 гг. в лагерях и ссылке в период сталинских репрессий","97.383663828946","56.330103714939","Нижнеингашский район, п. Ревучий
"
"Могила неизвестного партизана, замученного белобандитами в 1920 г.","96.737184552633","56.374622843971","Нижнеингашский район, с. Соколовка
"
"Могила Тараканова Гавриила Григорьевича первого председателя сельского Совета, расстрелянного кулаками","96.736555554466","56.374126548156","Нижнеингашский район, с. Соколовка"
"Братская могила борцов за Советскую власть, казнённых колчаковцами в сентябре 1919 г.","96.399715338244","56.465811450456","Нижнеингашский район, с. Стретенка
"
"Братская могила 18 повстанцев, расстрелянных колчаковцами в марте 1919 г.","96.887755099342","56.117137766112","Нижнеингашский район, с. Тины"
"Комплекс застройки, 1940-1950 гг.","88.215809353096","69.341924945593","г. Норильск, ул. Севастопольская, 7, площадь Памяти Героев, соор. 1
"
"Ансамбль застройки центра, 1940-1960 гг.:
дом жилой (с башней) на Октябрьской площади, 1951 г.
","88.208039655739","69.341318104796","г. Норильск, Ленинский пр., 1
"
"Ансамбль застройки центра, 1940-1960 гг.: дом жилой, 1951 г.
","88.206899797055","69.340975225788","г. Норильск, ул. 50 лет Октября, 1
"
"Ансамбль застройки центра, 1940-1960 гг.: дом жилой (с башней) на Октябрьской площади, 1947 г.
","88.209411792141","69.341436614499","г. Норильск, Ленинский пр., 2
"
"Ансамбль застройки центра, 1940-1960 гг.: дом жилой, 1951 г.
","88.208477174071","69.342017234902","г. Норильск, Ленинский пр., 3
"
"Ансамбль застройки центра, 1940-1960 гг.: дом жилой, 1948 г.
","88.209922529287","69.342148501764","г. Норильск, ул. Севастопольская, 2
"
"Ансамбль застройки центра, 1940-1960 гг.: дом жилой с центральным универмагом на Гвардейской площади, 1951 г.
","88.20893279279","69.343661505534","г. Норильск, Ленинский пр., 5
"
"Ансамбль застройки центра, 1940-1960 гг.: дом жилой, 1948 г.
","88.210212573984","69.342553709964","г. Норильск, ул. Севастопольская, 1
"
"Ансамбль застройки центра, 1940-1960 гг.: дом жилой с кинотеатром <Родина>, 1954 г.
","88.208020262033","69.344757996887","г. Норильск, Ленинский пр., 7
"
"Ансамбль застройки центра, 1940-1960 гг.: дом промышленности, 1958 г.
","88.210313631704","69.343125438372","г. Норильск, пл. Гвардейская, 2
"
"Ансамбль застройки центра, 1940-1960 гг.: дом промышленности (восточный корпус), 1958 г.
","88.211116227373","69.343550199902","г. Норильск, Ленинский пр., 8
"
"Ансамбль застройки центра, 1940-1960 гг.: дворец культуры комбината, 1952 г., 1965 г.
","88.205009144099","69.345103962346","г. Норильск, Ленинский пр., 9
"
"Ансамбль застройки центра, 1940-1960 гг.: дом жилой с гастрономом № 1 на Гвардейской площади, 1952 г.
","88.211146530577","69.344372230287","г. Норильск, Ленинский пр., 10
"
"Ансамбль застройки центра, 1940-1960 гг.: дом жилой с кинотеатром <Победа>, 1956 г.
","88.204781038356","69.346471670518","г. Норильск, Ленинский пр., 11
"
"Ансамбль застройки центра, 1940-1960 гг.: дом жилой с рестораном <Таймыр>, 1954 г.
","88.209271144308","69.34501269356","г. Норильск, Ленинский пр., 12
"
"Ансамбль застройки центра, 1940-1960 гг.:
дом жилой с магазинами, 1957 г.
","88.203652869913","69.347100582412","г. Норильск, Ленинский пр., 13
"
"Дом, в котором в 1950-х гг. жил геолог Урванцев Николай Николаевич, открывший Норильское месторождение полиметаллических руд","88.208006887664","69.345707635754","г. Норильск, Ленинский пр., стр. 14/1
"
"Ансамбль застройки центра, 1940-1960 гг.: кинотеатр им. В.И. Ленина, 1960 г.
","88.208394727581","69.345809619865","г. Норильск, Ленинский пр., 14
"
"Ансамбль застройки центра, 1940-1960 гг.: дом жилой с магазинами, 1956 г.
","88.202323431433","69.347745377768","г. Норильск, Ленинский пр., 15
"
"Ансамбль застройки центра, 1940-1960 гг.: дом жилой с рестораном <Лама>, 1954 г.
","88.206512019643","69.34648205914","г. Норильск, Ленинский пр., 16
"
"Ансамбль застройки центра, 1940-1960 гг.: дом жилой с магазинами, 1957 г.
","88.201253199569","69.348386618153","г. Норильск, Ленинский пр., 17
"
"Ансамбль застройки центра, 1940-1960 гг.: дом жилой с учреждениями, 1957 г.
","88.204902338619","69.34743041167","г. Норильск, Ленинский пр., 18
"
"Ансамбль застройки центра, 1940-1960 гг.: дом жилой с магазинами, 1960 г.
","88.203865983015","69.348056502774","г. Норильск, Ленинский пр., 20"
"Ансамбль застройки центра, 1940-1960 гг.: дом жилой с учреждениями, 1957 г.
","88.202526126147","69.348679542909","г. Норильск, Ленинский пр., 22
"
"Памятник В.И. Ленину. Скульптор С.Д. Меркулов, архитекторы Непкойницкий В.С., Минский Л.В. Материал - бетон, 1954 г.","88.208459715228","69.340932560401","г. Норильск, район Центральный, Ленинский пр., стр. 2А
"
"Бюст Завенягина А.П. Бюст бронзовый, постамент гранитный, 1960 г.","88.210333187729","69.343174285182","г. Норильск, район Центральный, площадь Гвардейская, 2,
на первом этаже в фойе
"
"Могила Давыдова Василия Иннокентьевича (1920-1968), Героя Советского Союза","88.223926692787","69.352187205879","г. Норильск, район Центральный, территория <Станция Голиково>, стр. 15/1
"
"Могила Ковальчука Дмитрия Андреевича (1919-1958), Героя Советского Союза","88.224411381411","69.351921486151","г. Норильск, район Центральный, территория станции Голиково, стр. № 15/1
"
"Могила Уганина Семёна Артемьевича (1924-1959), Героя Советского Союза","88.224912999646","69.35212854452","г. Норильск, район Центральный, территория станции Голиково, стр. № 15/1
"
"Место, где в 60-м году были открыты залежи медно-никелевых руд, положившие начало разработке Талнахского месторождения","88.441008800491","69.497961779505","г. Норильск, территория Горнолыжный комплекс, соор. 4"
"Место, где в 1749 году горным мастером Иоганом Меттихом впервые был обнаружен метеорит («Палласово железо»). На этом месте в 1981 году установлен памятный знак","91.754748367243","54.98267186228","Новосёловский район, на вершине сопки Метеоритной; водораздел рек Убей и Сисим"
"<Церковь Троицы>, 1845 г.","90.761399459565","55.15519484989","Новосёловский район, с. Бараит, ул. Береговая, 1
"
"Бюст дважды Героя Социалистического Труда К.У. Черненко. Скульптор Л.Е. Кербель, материал бронза, гранит, 1983 г.","90.979024006999","55.001569011612","Новосёловский район, с. Новоселово, на территории районного Дома культуры по ул. Театральная, 11
"
"Могила Русинова Василия Ивановича (1904-1977), Героя Советского Союза","90.95731171865","55.020140789237","Новосёловский район, с. Новоселово, кладбище
"
"Братская могила пяти партизан, расстрелянных 22 января 1919 года колчаковским карательным отрядом","94.197075509183","55.388164929937","Партизанский район, д. Асафьевка, в центре деревни
"
"Братская могила пятнадцати партизан, погибших в бою с колчаковским карательным отрядом в апреле 1919 года","94.333245528128","55.284423714906","Партизанский райо,
с. Вершино-Рыбное, в центре села
"
"Братская могила партизан, погибших в боях с колчаковцами в марте 1919 г.","94.288963930858","55.544020929636","Партизанский район, д. Ной
"
"Братская могила партизан, погибших в бою с колчаковцами в январе 1919 г.","94.370881639651","55.503907938568","Партизанский район, с. Партизанское
"
"Могила командира партизанского отряда Потылицина Д.М., зарубленного шашками колчаковским отрядом в 1919 году","94.393513278616","55.499232309014","Партизанский район, с. Партизанское, в центре села
"
"Могила Буташевича-Петрашевского Михаила Васильевича (1821–1866), видного деятеля русского освободительного движения 50-х гг. XIX в.","92.166120021469","57.819618920781","Пировский район, с. Бельское, общее кладбище"
"Усадьба П.В. Тишевской (дерево), ХIХ в.: дом жилой; амбар; ограда с воротами
","92.466383073905","57.61669431045","Пировский район, д. Игнатово, ул. Советская, 25
"
"Дом жилой пятистенок (дерево), кон. ХIХ в.","92.27640240707","57.619417007952","Пировский район, с. Пировское, ул. Советская, 34"
"Могила Красновых Дмитрия Никифоровича и Хрисанфа Дмитриевича, коммунистов, казнённых колчаковцами 3 января 1919 г.","95.185499925319","55.955999218166","Рыбинский район, в 3 км от с. Большие Ключи, неподалеку от автотрассы «М-53», в березовой роще"
"Могила Медведева Андрея Сидоровича (1882-1919 гг.), первого коммуниста села, казнённого колчаковцами","94.944287863352","56.083961518389","Рыбинский район, с. Малая Камала, кладбище по ул. Большая, 1а
"
"Могила Охоты Андрея Мартыновича (1903-1920 гг.), первого комсомольца села, погибшего от рук кулаков","94.682758515742","55.902768957481","Рыбинский район, д. Налобино, ул. Советская, 15а
"
"Братская могила 13 партизан, расстрелянных колчаковским карательным отрядом в январе 1919 года","94.777582073399","55.775833081747","Рыбинский район, с. Рыбное, ул. Ленина, 4а
"
"Дом, в котором в 1929-1930 гг. жил Герой Советского Союза Кузьмин Георгий Павлович","94.784304053837","55.778385767223","Рыбинский район, с. Рыбное, ул. Партизанская, 4
"
"Братская могила Грибалева и Панкова Ф.К., убитых кулаками в 1920 и 1928 гг.","94.909520165698","55.258446232322","Саянский район, с. Агинское, центр"
"Могила Фомичева Павла Никитовича (1912-1956), Героя Советского Союза","94.907951711228","55.252376040656","Саянский район, с. Агинское, кладбище
"
"Могила Салатова Александра Константиновича (1913-1994), полного кавалера ордена Славы","94.669845851708","55.278505232293","Саянский район, с. Кулижниково, кладбище
"
"Дом, в котором в 1902-1943 гг. родился и жил Герой Советского Союза Корольский Александр Михайлович","93.614013364523","56.395353929881","Сухобузимский район, с. Атаманово, пер. Корольского, 4
"
"Церковь Покровская, 1912 г.","93.70843140038","56.453534519711","Сухобузимский район, с. Большой Балчуг, ул. Центральная, 38а
"
"Мангазин (амбар), кон. ХIХ в.","93.575978496723","56.616048265653","Сухобузимский район, с. Кекур
"
"Могила Черняева Петра Матвеевича (1894-1922 гг.), первого председателя Нахвальского волисполкома, убитого кулаками","93.576189489522","56.616810167832","Сухобузимский район, с. Кекур, ул. Центральная, 24
"
"Братская могила четырех партизан-коммунистов, погибших при ликвидации бандгруппы в 1922 году","93.274815078631","56.499759349959","Сухобузимский район, с. Сухобузимское, у Дома культуры
"
"Братская могила красных дружинников, погибших в боях с белогвардейцами в 1920 г.","93.282007411196","56.50071930736","Сухобузимский район, с. Сухобузимское, парк
"
"Дом Сидельникова, рубеж ХIХ-ХХ вв.","93.280071478585","56.501845881567","Сухобузимский район, с. Сухобузимское, ул. Комсомольская, 20
"
"Дом, в котором жил В.И. Суриков в с.Сухобузимо 1854-1859 гг.","93.283410116977","56.500921251889","Сухобузимский район, с. Сухобузимское, пересечение улиц Сурикова и Ленина
"
"Могила Портнягина Сергея Николаевича (1918-1980), Героя Советского Союза","93.267162429014","56.493261367063","Сухобузимский район, с. Сухобузимское, кладбище
"
"<Покровская церковь>, 1830 г.","93.047559806642","56.550078940493","Сухобузимский район, с. Шила, ул. Ленина, 46
"
"Могила Каштукова Мефодия Петровича, замученного колчаковцами в 1920 году","93.798821506226","56.517388061242","Сухобузимский район, с. Усть-Кан, на окраине села
"
"Братская могила четырнадцати партизан, погибших в Кайтымском бою с колчаковским карательным отрядом Красильникова 28 июня 1919 года","95.480201721382","57.389881453731","Тасеевский район, п. Усть-Кайтым, в 1,5 км на северо-запад от поселка
"
"Братская могила жителей села, расстрелянных колчаковцами в июне 1919 г.","95.481025328599","57.138597882331","Тасеевский район, Фаначетский сельсовет, (бывшая деревня Пронино)
"
"Дом жилой (дер.), 2-я пол. XIX в.","94.889290147316","57.214599811907","Тасеевский район, с. Тасеево, ул. Партизанская, 8
"
"Братская могила партизан и их семей, погибших в борьбе с колчаковским карательным отрядом в феврале 1919 г.","94.898148824432","57.209810682383","Тасеевский район, с. Тасеево, в парке
"
"Братская могила партизан, их семей, погибших в борьбе с колчаковскими войсками в 1918-1919 гг. Захоронения погибших из разных мест были перенесены в село и похоронены в одну могилу","94.892284277758","57.21225914368","Тасеевский район, с. Тасеево, площадь у школы № 1
"
"Дом, в котором в сентябре 1909 года в течение 7 дней жил Ф.Э. Дзержинский, сосланный в Тасеево на вечное поселение","94.894865527681","57.212091497484","Тасеевский район, с. Тасеево, ул. Дзержинского, 2
"
"Дом, в котором в 1919 году работали курсы командиров партизан Северо-Канского фронта","94.892584769072","57.214653452829","Тасеевский район, с. Тасеево, ул. Краснопартизанская, 1"
"Дом, в котором с 12 по 14 января 1929 года останавливался С.М. Буденный, приехав в село для встречи с партизанами","94.892239872853","57.214095479763","Тасеевский район, с. Тасеево, ул. Краснопартизанская, 18"
"Дом, в котором в 1918–1919 гг. работал штаб партизан Северо-Канского фронта","94.89193803797","57.214765104414","Тасеевский район, с. Тасеево, пер. Центральный, 1"
"Братская могила 13 жителей, расстрелянных колчаковцами 19 июля 1919 г.","94.87661534578","57.220605227229","Тасеевский район, с. Тасеево, кладбище
"
"Братская могила тридцати партизан, погибших в феврале и июле 1919 года в боях партизанского соединения Северо-Канского фронта с колчаковскими войсками","94.877242405582","57.220395395647","Тасеевский район, с. Тасеево, на общем кладбище
"
"Братская могила 35 партизан, погибших в июне и сентябре 1919 года в боях с колчаковским карательным отрядом Красильникова","94.83641496783","57.415710943597","Тасеевский район, с. Троицк, в центре села
"
"Братская могила жителей с. Яковлево, расстрелянных колчаковским карательным отрядом в июне 1919 г. за оказание помощи партизанам","94.838144967404","57.424052463041","Тасеевский район, Троицкий сельсовет (на общем кладбище
бывшей деревни Яковлево)
"
"Могила председателя Раздолинского сельсовета Иванова И.А., убитого кулаками в июне 1931 года","94.527150394681","56.990210391025","Тасеевский район, Раздолинский сельсовет, д. Струково, площадь у клуба
"
"Могила Прохорова Ильи Иосифовича (1917–1964), полного кавалера ордена Славы","89.270896896759","56.587008492887","Тюхтетский район, с. Зареченка, кладбище"
"Братская могила борцов за власть Советов, погибших в 1919, 1921, 1930 и 1942 гг.","89.326370542743","56.547033380048","Тюхтетский район, с. Тюхтет"
"Могила Нестерова Кузьмы Константиновича (1922-1991), полного кавалера ордена Славы","89.605500773552","61.043626193252","Туруханский район, с. Ворогово, кладбище
"
"Братская могила членов Красноярского Совета рабочих, солдатских депутатов и местных активистов, расстрелянных колчаковским карательным отрядом в июле 1918 г.","88.004363967067","65.796415624412","Туруханский район, с. Туруханск, берег реки Нижняя Тунгуска
"
"<Туруханский Троицкий монастырь>, 1800 г.","87.97589062299","65.790498463135","Туруханский район, с. Туруханск, ул. Святого Луки Войно-Ясенецкого, 4
"
"Дом, в котором жил, отбывая в 1915-1917 гг. ссылку, Свердлов Яков Михайлович. В доме - мемориальный музей Я.М. Свердлова","87.965383623953","65.791258297459","Туруханский район, с. Туруханск, ул. Свердлова, 26
"
"Дом, в котором в 1914-1916 гг. жил Спандарян Сурен Спандарович","87.965566002714","65.790126018063","Туруханский район, с. Туруханск, ул. Спандаряна, 37
"
"Могила норвежского моряка Тессема - участника полярной Норвежской экспедиции Амундсена на шхуне <Мод>, погибшего в 1920 году","80.555705923368","73.505022879146","Таймырский Долгано-Ненецкий муниципальный район, п. Диксон, проезд Диксон-Водозабор
"
"Могила Бегичева Никифора Алексеевича (1874–1927), исследователя Арктики","80.527620149844","73.509103261464","Таймырский Долгано-Ненецкий муниципальный район, пгт. Диксон, ул. Водопьянова, в районе здания школы (ул. Водопьянова, 17)"
"Братская могила семи североморцев, погибших в бою с фашистским линкором 27 августа 1942 года","80.38863200351","73.509227398716","Таймырский Долгано-Ненецкий муниципальный район, пгт. Диксон
(в районе здания сельского дома культуры по ул. Чкалова, 12)"
"Здание первого радиометцентра, открытого в 1934 г.","80.402444307837","73.506328563717","Таймырский Долгано-Ненецкий муниципальный район, п. Диксон, ул. Папанина, 18
"
"Первый дом на острове Домашнем архипелага Северная Земля, в котором в 1930-1932 гг. зимовала экспедиция Ушакова-Урванцева","92.052718132744","79.567573315795","Таймырский Долгано-Ненецкий муниципальный район, архипелаг Северная Земля, о. Средний, аэропорт
"
"Гурий первой русской полярной экспедиции (1900-1902 гг.) под руководством Толля Эдуарда Васильевича","104.26867626871","77.583124555746","Таймырский Долгано-Ненецкий муниципальный район, полуостров Челюскина, бухта Заря, мыс Чекина
"
"Домик полярной станции, построенный в 1934 году Папаниным Иваном Дмитриевичем","105.00375664551","77.484227633036","Таймырский Долгано-Ненецкий муниципальный район, мыс Челюскина, бухта Мод
"
"Комплекс деревянной застройки, 1930-1940-е гг.","86.168828055767","69.402881690834","Таймырский Долгано-Ненецкий муниципальный район, г. Дудинка, ул. Ленина, участок"
"Здание речного вокзала Дудинского порта, построенное в 1949 г.","86.172228886721","69.40209023977","Таймырский Долгано-Ненецкий муниципальный район, г. Дудинка, ул. 30 лет ВЛКСМ, 20
"
"Первый каменный дом в г. Дудинке, построенный в 1943 г.","86.161503452985","69.409266050448","Таймырский Долгано-Ненецкий муниципальный район, г. Дудинка, ул. Советская, 18
"
"Опорный пункт установления Советской власти в районе в 1925-1935 гг.","94.548618508714","70.979833111346","Таймырский Долгано-Ненецкий муниципальный район, п. Волочанка
"
"Могила первых комсомольцев Таймыра, убитых во время восстания кочевых жителей тундры в 1932 г.","94.510175273268","70.96997758824","Таймырский Долгано-Ненецкий муниципальный район, п. Старая Волочанка, кладбище
"
"Надгробие Елены и Прокопия Поповых, сооружённое в 1916 г.","89.873564289098","70.891605196861","Таймырский Долгано-Ненецкий муниципальный район, охотточка Введенское на р. Пясина
"
"Комплекс сооружений середины ХVIII века узлового пункта русского промыслового освоения центра Таймыра","86.836426996037","73.59793341022","Таймырский Долгано-Ненецкий муниципальный район, охотточка Введенское
на р. Пясина
"
"Остатки зимовий, где останавливались в середине ХVII - 1920-х гг. участники экспедиций первопроходца Лаптева Харитона Прокопьевича, учёных Миддендорфа Александра Фёдоровича и Урванцева Николая Николае","86.660897154182","73.5982286857","Таймырский Долгано-Ненецкий муниципальный район, охотточка Введенское
на р. Пясина"
"Зимовье Половинное (фундаменты построек), существовавшие в начале ХVII - 2-й половине ХIХ в.","88.545859616253","70.342231847438","Таймырский Долгано-Ненецкий муниципальный район, устье р. Половинки, на р. Пясина
"
"Авамо-Тагинарский волок, возникший в начале XVII в.","93.020180792379","70.849683138978","Таймырский Долгано-Ненецкий муниципальный район, р. Авам
р. Тагинарка
"
"Первый дом посёлка, в котором в 1936 г. размещался сельсовет одного из первых долгано-нганасанских колхозов","92.82081408536","71.114161848638","Таймырский Долгано-Ненецкий муниципальный район, п. Усть-Авам
"
"Могила Анциферова Куприна (1916-1978 гг.), охотника-промысловика","92.823148937709","71.113602101904","Таймырский Долгано-Ненецкий муниципальный район, п. Усть-Авам
"
"Братская могила десяти советско-партийных работников, погибших во время вражеской диверсии в 1932 году","102.47164882779","71.982004830219","Таймырский Долгано-Ненецкий муниципальный район, с. Хатанга, ул. Советская, 26б
"
"Место, где в 1660-1670 гг. находилось Хатангское ясачное зимовье","102.4674933667","71.981196889493","Таймырский Долгано-Ненецкий муниципальный район, с. Хатанга
"
"Комплекс 3-х зданий культурной базы, построенных в 1929-1939 гг.","102.46311573224","71.980432244529","Таймырский Долгано-Ненецкий муниципальный район,
с. Хатанга, ул. Советская, 14"
"Комплекс 3-х зданий культурной базы, построенных в 1929–1939 гг.","102.46559824857","71.979817989184","Таймырский Долгано-Ненецкий муниципальный район, с. Хатанга, ул. Советская, 18"
"Зимовье Налтаново-коренное","99.386178676598","71.274679097138","Таймырский Долгано-Ненецкий муниципальный район, п. Катырык

"
"Остатки базового посёлка 1739 года отряда землепроходца Лаптева Харитона Прокопьевича","105.92929118663","72.853724815725","Таймырский Долгано-Ненецкий муниципальный район, в 10 км северо-восточнее п. Новорыбное, правый берег р. Хатанга, между реками Попигай и Блудная, в 4 км ниже устья р. Блудная
"
"Зимовье ХVIII века и часовня ХIХ века","103.46340127744","70.622138070337","Таймырский Долгано-Ненецкий муниципальный район, устье р. Котуйкан
на р. Котуй
"
"Памятник-маяк ледоколу <Сибиряков>, установленный в 1942 г.","80.319949019754","73.48874017656","Таймырский Долгано-Ненецкий муниципальный район, о. Белуха, Карское море
"
"Могила Лисовского Николая Фёдоровича (1802-1844 гг.), декабриста","83.209136244862","70.164500436338","Таймырский Долгано-Ненецкий муниципальный район, с. Толстый Мыс, 20 км от с. Караул
"
"Братская могила 3 жителей, убитых белобандитами в июне 1919 г.","89.64096085189","55.427560196867","Ужурский район, д. Баит, центр
"
"Церковь Петра и Павла","89.851102526187","55.321412840211","Ужурский район, г. Ужур, ул. Советская, 2
"
"Братская могила 73 участников вооруженного восстания против колчаковского режима, расстрелянных карательным отрядом в начале 1919 года","89.853157138229","55.32185224202","Ужурский район, г. Ужур, ул. Ленина (напротив Дома культуры)
"
"Могила Кныша Якова Антоновича (1917-1961), полного кавалера ордена Славы","89.798076931759","55.302139905048","Ужурский район, г. Ужур, кладбище
"
"Братская могила борцов Клюквенского фронта, погибших в бою 12 июня 1918 г.","94.390344438275","55.897877592528","Уярский район, п. Громадск
"
"Братская могила партизан, расстрелянных колчаковцами в декабре 1918 г.

Братская могила красных дружинников, казнённых белогвардейцами в декабре 1918 г.","94.379584939204","55.712566492789","Уярский район, д. Николаевка, ул. Советская, 30
"
"Амбар двухэтажный (дерево), руб. ХIХ-ХХ вв.","94.02135150819","55.893803822498","Уярский район, с. Никольское, ул. Трактовая, 2Д
"
"Церковь Петра и Павла, 1911 г.","94.514542961705","55.864554985397","Уярский район, д. Новоалександровка, ул. Центральная, 25В
"
"Братская могила борцов Клюквенского фронта, погибших в июне 1918 г.","94.203926078814","55.804196527275","Уярский район, блок-пост Озёрный
"
"Ольгинская церковь, 1899 г.","94.30855517753","55.866364508624","Уярский район, с. Ольгино, ул. Центральная, 2а
"
"<Церковь Спаса Преображения>, кон. ХIХ в.","94.351695119693","55.822922881341","Уярский район, г. Уяр, ул. Щетинкина, 2
"
"Здание вокзала, 1900 г.","94.329937812371","55.806053990321","Уярский район, г. Уяр, ул. 30 лет Победы, 21В
"
"Водонапорная башня, 1900 г.","94.326438186776","55.807051948619","Уярский район, г. Уяр, ул. Уланова, 28"
"Дом купца (дерево), руб. ХIХ-ХХ вв.
Перенесён из с. Ольгино в 1920 г.","94.345708552267","55.818981545447","Уярский район, г. Уяр, ул. Ленина, 172
"
"Братская могила одиннадцати партизан Манского фронта, расстрелянных в августе 1919 г. колчаковским карательным отрядом","94.328298363339","55.81189172211","Уярский район, г. Уяр, ул. Ленина, 83Д
"
"Братская могила комсомольцев, погибших в период коллективизации в 1930 г.","89.601559194859","55.844495750238","Шарыповский район, с. Берёзовское"
"Братская могила трех партизан, расстрелянных в марте 1919 года колчаковским карательным отрядом","89.319751184855","55.189798102381","Шарыповский район, с. Большое Озеро, в центре села"
"Братская могила двух активистов-организаторов колхоза в селе, убитых в июне 1930 г. кулаками","88.701515318009","55.525181723455","Шарыповский район, с. Едет
"
"Братская могила коммунаров, убитых белобандитами в 1922 г.","88.703668232442","55.516559237872","Шарыповский район, с. Ивановка"
"Братская могила 15 партизан, погибших 15 марта 1919 года в бою под с.Косые Ложки с колчаковским карательным отрядом","89.220112204276","55.378710230004","Шарыповский район, Косоложенский сельсовет, с. Косые Ложки, в центре села"
"Братская могила жителей села, погибших от рук колчаковцев и белобандитов в 1919–1921 гг.","89.323975710585","55.127678870473","Шарыповский район, с. Малое Озеро"
"Братская могила партизан и жителей села, убитых белогвардейцами в 1919 г.","89.499325566076","55.325221837537","Шарыповский район, с. Ораки"
"Братская могила 82 партизан, погибших в бою с колчаковским отрядом 5 апреля 1919 года","89.236306940013","55.292226617709","Шарыповский район, Парнинский сельсовет, с. Парная, в сквере
"
"Братская могила жителей села, убитых белогвардейцами в 1919 г.","88.866386913147","55.516208632489","Шарыповский район, д. Сорокино"
"Братская могила 57 партизан и мирных жителей, помогавших партизанам, расстрелянных и повешенных в апреле 1919 года колчаковским карательным отрядом","89.196440692437","55.54169069735","Шарыповский район, г. Шарыпово, в сквере, пл. Революции
"
"Дом Климовых (Пахомовых), 2 пол. ХIХ в.","92.310742745975","53.463074838031","Шушенский район, с. Дубенское, ул. Октябрьская, 9
"
"Дом с лавкой (кирпич, дерево), руб. ХIХ–ХХ вв.","92.310345159618","53.463195955139","Шушенский район, с. Дубенское, ул. Октябрьская, 11"
"Амбар двухкамерный (дерево), руб. ХIХ-ХХ вв.","91.977051753022","53.186142229087","Шушенский район, с. Иджа, ул. Советская, 37б
"
"Братская могила борцов за Советскую власть и коллективизацию, погибших в 1919, 1928 гг.","92.006557638101","53.407893004037","Шушенский район, с. Казанцево"
"Могила Суворова Филиппа, красного партизана, умершего от ран в госпитале в 1919 г.","91.808123833584","53.20244363969","Шушенский район, с. Каптырево"
"Ворота усадьбы (дерево), руб. ХХ в.","91.976075289472","53.040647048368","Шушенский район, с. Средняя Шушь, ул. Кирова, 17"
"Церковь, нач. ХХ в.","91.917749388205","53.072939912814","Шушенский район, с. Субботино, ул. Октябрьская, 1
"
"Могила Кривенко Семена Устиновича (1909-1974), Героя Советского Союза","91.927158084116","53.057189317165","Шушенский район, территория Субботинского сельсовета, в 80 метрах южнее с. Субботино, кладбище
"
"Братская могила борцов за укрепление Советской власти и коллективизации, погибших в 1921, 1932 гг.","91.926768400291","53.057099941429","Шушенский район, с. Субботино"
"Памятник «Скорбящая мать». Скульптор   Ю.П. Ишханов, материал мрамор, гранит, 1985 г.","91.933379102808","53.334127246196","Шушенский район, пгт. Шушенское, ул. Пушкина, 3"
"Братская могила борцов за Советскую власть и коллективизацию, погибших в 1928, 1930, 1938 гг.","91.906361771169","53.299014037175","Шушенский район, пгт. Шушенское
"
"Мемориальный музей-заповедник <Сибирская ссылка В.И. Ленина>:
дом крестьянина Зырянова, в котором с 7 мая 1897 г. по 10 июля 1898 г. жил Ленин Влади-мир Ильич
","91.927412830573","53.329319452383","Шушенский район, пгт. Шушенское, ул. Новая, 1
"
"Мемориальный музей-заповедник <Сибирская ссылка В.И. Ленина>:
дом, где жил в ссылке лодзинский рабочий И.Л. Проминский, у которого Ленин Владимир Ильич неоднократно бывал
","91.926943465174","53.329449381387","Шушенский район, пгт. Шушенское, ул. Новая, 1

"
"Мемориальный музей-заповедник <Сибирская ссылка В.И. Ленина>:
дом, где жил в ссылке путиловский рабочий О.А. Энгберг, у которого Ленин Владимир Ильич неоднократно бывал
","91.927820996767","53.32877042158","Шушенский район, пгт. Шушенское, ул. Новая, 1
"
"Мемориальный музей-заповедник <Сибирская ссылка В.И. Ленина>:
здание волостного правления, в котором во время ссылки Ленин Владимир Ильич неоднократно бывал
","91.929112728563","53.326941479556","Шушенский район, пгт. Шушенское, ул. Новая, 1

"
"памятные места, связанные с пребыванием Ленина Владимира Ильича в ссылке в Шу-шенском:
<Песчаная горка>;
<Журавлиная горка>;
<Сосновый бор>;
<Березовая роща>;
<Шалаш>;
<Озеро Перово>
","91.928769698592","53.327754035024","Шушенский район, на территории национального парка <Шушенский бор>
"
"Дом, в котором жил, отбывая в 1898-1900 гг. ссылку, Ленин Владимир Ильич. В доме - мемориальный музей В.И. Ленина","91.930409021755","53.326717005904","Шушенский район, пгт. Шушенское, ул. Новая, 1
"
"Памятник В.И. Ленину, ск. Н.В. Томский; бронза, гранит, 1954 г.","91.926558259188","53.330154230511","Шушенский район, пгт. Шушенское, ул. Новая, 1
"
"Обелиск Герою Советского Союза Увачану Иннокентию Петровичу","100.21947717284","64.271945354989","п. Тура"
"Экспедиционная база по изучению Тунгусского метеорита","101.46925789356","60.670858899102","с. Ванавара, в 65 км к северо-западу от села"
"«Духовное училище», кон. XIX в.","92.860479192744","56.011978450895","г. Красноярск, пр. Мира, 98а"
"«Дом Белоусова», руб. XIX–XX вв.","92.844987546121","56.005015692329","г. Красноярск, ул. Ломоносова, 14"
"«Учительская семинария: ограда», рубеж XIX–XX вв.","92.862510477248","56.008844506249","г. Красноярск, ул. Урицкого, 106, сооружения 2, 3"
"«Дом жилой», нач. XX в.","92.839569083361","56.012056222942","г. Красноярск, ул. Ленина, 154"
"«Красноярский Успенский мужской монастырь. Летний дом архиерея», 1879–1883 гг., строил иеромонах Зосима","92.742464154234","55.979636008961","г. Красноярск, ул. Лесная, 51"
"«Мемориальный камень, заложенный комсомольцами – первыми строителями ГЭС», 1956 г.","92.374613822768","55.967891333348","г. Дивногорск, Набережная имени В.И. Ленина"
"«Женский монастырь католической церкви», посл. четв. XIX в. (ок. 1886 г.)","89.320967153479","56.53633880591","Тюхтетский район, с. Тюхтет, ул. Советская, 22в"
